X,Y,name,type,group,county,note,website,address,point_x,point_y,source,link_id,cms_link,filename
-122.460885158107274,37.990974886540627,Corny's Corner,Meeting Place,Crissy Field,San Francisco,,,,   -122.46088515800,     37.80466958250,"Michael Norelli, 4/16/2012, NPS Maintenance Staff",0,600,CornysCo600.html
-122.489227822310568,37.822435559176327,Salada Beach Cafe,Meeting Place,Milagra Ridge,San Mateo,,,,   -122.48922782200,     37.63640890390,"Mike Hsu, 4/16/2012, business adress",0,601,SaladaBe601.html
-122.320190000368115,37.621672339088704,"Phleger Estate meeting location, Kings Mountain Fire Brigade",Meeting Place,Phleger Estate,San Mateo,,,,   -122.32019000000,     37.43598600030,Park Stewardship Restoration Sites and Meeting Locations,177,1,PhlegerE1.html
-122.291171752174435,37.621723603071196,Huddart County Park Entrance,Trailhead,Phleger Estate,San Mateo,,,,   -122.29117175200,     37.43603717620,"Mike Hsu, 2/13/2012, County of San Mateo map",0,2,HuddartC2.html
-122.291663999693711,37.62581445254493,Huddart Park meeting location,Meeting Place,Phleger Estate,San Mateo,,,,   -122.29166400000,     37.44012100030,Park Stewardship Restoration Sites and Meeting Locations,176,3,HuddartP3.html
-122.291630286808171,37.627460299759399,Restroom,Restroom,Phleger Estate,San Mateo,,,,   -122.29163028700,     37.44176402210,"Mike Hsu, 2/14/2012",0,4,Restroom4.html
-122.311037444322452,37.63201227367459,Phleger Estate,Park,Phleger Estate,San Mateo,,http://www.parksconservancy.org/visit/park-sites/phleger-estate.html,"Skyline Blvd., Woodside, CA 94062",   -122.31103744400,     37.44630818490,"Harvested from the GGNPC website, 10/14/2011",9999,5,PhlegerE5.html
-122.288406166011569,37.633665274167463,Gullies Trail,Trailhead,Phleger Estate,San Mateo,,,,   -122.28840616600,     37.44795835000,from Trails_pts_100ft_20111121,0,6,GulliesT6.html
-122.497787088303355,37.683401421180434,Pillar Point,Site of Interest,Rancho Corral de Tierra,San Mateo,,,,   -122.49778708800,     37.49760947410,"M. Norelli, 2/16/2012",0,7,PillarPo7.html
-122.498588173805018,37.689809913082023,Pillar Point BLuff,Site of Interest,Rancho Corral de Tierra,San Mateo,,,,   -122.49858817400,     37.50400705150,"M. Norelli, 2/16/2012",0,8,PillarPo8.html
-122.497539624553838,37.700300561289247,Half Moon Bay Airport,Site of Interest,Rancho Corral de Tierra,San Mateo,,,,   -122.49753962500,     37.51447985280,"M. Norelli, 2/16/2012",0,9,HalfMoon9.html
-122.495082322391099,37.703052249069074,Cabrillo Farms,Site of Interest,Rancho Corral de Tierra,San Mateo,,,,   -122.49508232200,     37.51722686340,"M. Norelli, 2/16/2012",0,10,Cabrillo10.html
-122.517008373937159,37.710289058082694,J.W. Fitzgerlad Marine Reserve,Building,Rancho Corral de Tierra,San Mateo,,,,   -122.51700837400,     37.52445138000,"M. Norelli, 2/16/2012",0,11,JWFitzge11.html
-122.503459742872707,37.710631369925132,Moss Beach Ranch,Site of Interest,Rancho Corral de Tierra,San Mateo,,http://mossbeachranch.com/,,   -122.50345974300,     37.52479311070,"Updated Sara Solomon, 4/17/2013",0,12,MossBeac12.html
-122.497061451424671,37.714676299058347,Ember Ridge Equestrian Center,Site of Interest,Rancho Corral de Tierra,San Mateo,,http://halfmoonbay-feedandfuel.com/erhome.html,,   -122.49706145100,     37.52883117460,"Updated Sara Solomon, 4/17/2013",0,13,EmberRid13.html
-122.499241415258922,37.720097975858906,Renegade Ranch,Site of Interest,Rancho Corral de Tierra,San Mateo,,,"1425 Sunshine Valley Rd Montara, CA 94037 (650) 728-9448",   -122.49924141500,     37.53424365530,"Updated Sara Solomon, 4/17/2013",0,14,Renegade14.html
-122.479245644270975,37.721396506065965,Rancho Corral de Tierra,Park,Rancho Corral de Tierra,San Mateo,,http://www.parksconservancy.org/visit/park-sites/rancho-corral-de-tierra.html,,   -122.47924564400,     37.53553998400,"Harvested from the GGNPC website, 10/14/2011",9999,15,RanchoCo15.html
-122.519295068412504,37.72235292767509,Montara Lighthouse,Site of Interest,Rancho Corral de Tierra,San Mateo,,,,   -122.51929506800,     37.53649478430,"M. Norelli, 2/16/2012",0,16,MontaraL16.html
-122.508367376553053,37.729297111552711,Farallone View Elementary School,Building,Rancho Corral de Tierra,San Mateo,,,,   -122.50836737700,     37.54342720290,"M. Norelli, 2/16/2012",0,17,Farallon17.html
-122.509754190503301,37.737070069232054,Ocean View Farms,Site of Interest,Rancho Corral de Tierra,San Mateo,,http://halfmoonbay-feedandfuel.com/ovhome.html,,   -122.50975419100,     37.55118700410,"Updated Sara Solomon, 4/17/2013",0,18,OceanVie18.html
-122.514073491298461,37.738804684848482,Montara State Beach,Beach,Rancho Corral de Tierra,San Mateo,,,,   -122.51407349100,     37.55291868550,"M. Norelli, 2/16/2012",0,19,MontaraS19.html
-122.512489300440777,37.739732668398524,Trailhead,Trailhead,Rancho Corral de Tierra,San Mateo,,,,   -122.51248930000,     37.55384509970,from Trails_pts_100ft_20111121,0,20,Trailhea20.html
-122.514680253990377,37.751031983140045,Gray Whale Cove State Beach,Beach,Rancho Corral de Tierra,San Mateo,,,,   -122.51468025400,     37.56512532040,"M. Norelli, 2/16/2012",0,21,GrayWhal21.html
-122.444309300333771,37.780523804673066,Sweeney Ridge Trail,Trailhead,Sweeney Ridge,San Mateo,,,,   -122.44430930000,     37.59456744150,from Trails_pts_100ft_20111121,0,22,SweeneyR22.html
-122.478994186632249,37.785328671955419,Baquiano Trail,Trailhead,Sweeney Ridge,San Mateo,,,,   -122.47899418700,     37.59936423020,from Trails_pts_100ft_20111121,0,23,Baquiano23.html
-122.458408030506078,37.791797777161335,Sneath Lane Road,Trailhead,Sweeney Ridge,San Mateo,,,,   -122.45840803100,     37.60582246680,from Trails_pts_100ft_20111121,0,24,SneathLa24.html
-122.458749553448982,37.797699377446627,Sweeney Ridge,Park,Sweeney Ridge,San Mateo,,http://www.parksconservancy.org/visit/park-sites/sweeney-ridge.html,"Sweeney Ridge, San Bruno, CA 94044",   -122.45874955300,     37.61171416030,"Harvested from the GGNPC website, 10/14/2011",9999,25,SweeneyR25.html
-122.459078223281224,37.799701793262074,"Parking Lot, Sweeney Ridge",Parking Lot,Sweeney Ridge,San Mateo,,,,   -122.45907822300,     37.61371321650,from O:\gis_projects\_Parkwide\park_locations_2011\NAD83_UTM10\GGNRAParking_pts_201111.shp,0,26,ParkingL26.html
-122.483550465081677,37.803051741270401,"Parking Lot, Shelldance Road",Parking Lot,Sweeney Ridge,San Mateo,,,,   -122.48355046500,     37.61705754610,from O:\gis_projects\_Parkwide\park_locations_2011\NAD83_UTM10\GGNRAParking_pts_201111.shp,0,27,ParkingL27.html
-122.483147174002767,37.803372908783125,Mori Ridge Trail,Trailhead,Sweeney Ridge,San Mateo,,,,   -122.48314717400,     37.61737817510,from Trails_pts_100ft_20111121,0,28,MoriRidg28.html
-122.492752000004714,37.80512266744411,MORI POINT,Restoration Site,Mori Point,San Mateo,,,,   -122.49275200000,     37.61912500020,Park Stewardship Restoration Sites and Meeting Locations,160,29,MORIPOIN29.html
-122.453952695560304,37.805193619684665,Sneath Lane,Trailhead,Sweeney Ridge,San Mateo,,,,   -122.45395269600,     37.61919583350,from Trails_pts_100ft_20111121,0,30,SneathLa30.html
-122.48642699970604,37.805237860450468,Mori Point Gate,Meeting Place,Mori Point,San Mateo,,,,   -122.48642700000,     37.61924000010,Park Stewardship Restoration Sites and Meeting Locations,142,31,MoriPoin31.html
-122.486554633289472,37.805248358747839,Old Mori Road,Trailhead,Mori Point,San Mateo,,,,   -122.48655463300,     37.61925048080,from Trails_pts_100ft_20111121,0,32,OldMoriR32.html
-122.486875143572874,37.805290982519509,Portable Restroom,Restroom,Mori Point,San Mateo,,,,   -122.48687514400,     37.61929303310,"Ally Gregg-Zellars, 1/3/12",0,33,Portable33.html
-122.454201000175928,37.805486276607866,Sweeny Ridge- Sneath Ln meeting location,Meeting Place,Sweeney Ridge,San Mateo,,,,   -122.45420100000,     37.61948799990,Park Stewardship Restoration Sites and Meeting Locations,173,34,SweenyRi34.html
-122.496541334814623,37.805601503836336,Headlands Trailhead,Trailhead,Mori Point,San Mateo,,,,   -122.49654133500,     37.61960303400,"Monica Stafford, 2/15/2012",0,35,Headland35.html
-122.497777999754774,37.805999136482683,Mori Point,Park,Mori Point,San Mateo,,http://www.parksconservancy.org/visit/park-sites/mori-point.html,"Pacifica, CA 94044",   -122.49777800000,     37.62000000010,"Harvested from the GGNPC website, 10/14/2011",9999,36,MoriPoin36.html
-122.465024391362419,37.814369978828452,Sweeney Ridge Trail,Trailhead,Sweeney Ridge,San Mateo,,,,   -122.46502439100,     37.62835681980,from Trails_pts_100ft_20111121,0,37,SweeneyR37.html
-122.463619798714632,37.814374876642447,Sweeney Ridge Trail,Trailhead,Sweeney Ridge,San Mateo,,,,   -122.46361979900,     37.62836170940,from Trails_pts_100ft_20111121,0,38,SweeneyR38.html
-122.465279000225451,37.814606554860241,Skyline College meeting location,Meeting Place,Sweeney Ridge,San Mateo,,,,   -122.46527900000,     37.62859299980,Park Stewardship Restoration Sites and Meeting Locations,174,39,SkylineC39.html
-122.47664163945295,37.825640632901205,Milagra Ridge,Park,Milagra Ridge,San Mateo,,http://www.parksconservancy.org/visit/park-sites/milagra-ridge.html,"600 Sharp Park Road, Pacifica, CA 94044",   -122.47664163900,     37.63960861860,"Harvested from the GGNPC website, 10/14/2011",9999,40,MilagraR40.html
-122.474312000398314,37.82147304568921,Milagra Ridge gate,Meeting Place,Milagra Ridge,San Mateo,,,,   -122.47431200000,     37.63544800020,Park Stewardship Restoration Sites and Meeting Locations,143,41,MilagraR41.html
-122.474373471758142,37.821581933367938,Milagra Ridge Trail,Trailhead,Milagra Ridge,San Mateo,,,,   -122.47437347200,     37.63555670580,from Trails_pts_100ft_20111121,0,42,MilagraR42.html
-122.47659473605809,37.823971291847457,Trailhead,Trailhead,Milagra Ridge,San Mateo,,,,   -122.47659473600,     37.63794206850,from Trails_pts_100ft_20111121,0,43,Trailhea43.html
-122.476765571273916,37.824178838174326,Portable Restroom,Restroom,Milagra Ridge,San Mateo,,,,   -122.47676557100,     37.63814926780,"Ally Gregg-Zellars, 1/3/12",0,44,Portable44.html
-122.486993409817856,37.825010653882657,Oceana High School,Building,Milagra Ridge,San Mateo,,,,   -122.48699341000,     37.63897969280,"Mike Hsu, 2/14/2012",0,45,OceanaHi45.html
-122.477904999715761,37.825022981714845,MILAGRA RIDGE,Restoration Site,Milagra Ridge,San Mateo,,,,   -122.47790500000,     37.63899200000,Park Stewardship Restoration Sites and Meeting Locations,156,46,MILAGRAR46.html
-122.486420000282635,37.825703118562721,Oceana Native Plant Nursery,Building,Milagra Ridge,San Mateo,,,,   -122.48642000000,     37.63967099980,Oceana Native Plant Nursery,50,47,OceanaNa47.html
-122.488555999859372,37.825951533567277,Oceana High School and Nursery Parking Lot,Meeting Place,Milagra Ridge,San Mateo,,,,   -122.48855600000,     37.63991899960,Park Stewardship Restoration Sites and Meeting Locations,158,48,OceanaHi48.html
-122.481727896325168,37.826630058691208,"Parking Lot, Milagra Ridge",Parking Lot,Milagra Ridge,San Mateo,,,,   -122.48172789600,     37.64059639050,from O:\gis_projects\_Parkwide\park_locations_2011\NAD83_UTM10\GGNRAParking_pts_201111.shp,0,49,ParkingL49.html
-122.488898849302274,37.829158765202266,Milagra Battery Trail,Trailhead,Milagra Ridge,San Mateo,,,,   -122.48889884900,     37.64312087110,from Trails_pts_100ft_20111121,0,50,MilagraB50.html
-122.495883224431097,37.884162692582528,"Parking Lot, John Daly Overlook",Parking Lot,Fort Funston,San Mateo,,,,   -122.49588322400,     37.69803323600,from O:\gis_projects\_Parkwide\park_locations_2011\NAD83_UTM10\GGNRAParking_pts_201111.shp,0,51,ParkingL51.html
-122.499247854404857,37.898611728416505,Fort Funston Native Plant Nursery and Volunteer Program,Building,Fort Funston,San Francisco,,,,   -122.49924785400,     37.71245833290,"Ally Gregg-Zellars, 1/3/12",0,52,FortFuns52.html
-122.499710130218205,37.899113467732512,Volunteer Parking,Parking Lot,Fort Funston,San Francisco,,,,   -122.49971013000,     37.71295924180,Fort Funston Nursery,53,53,Voluntee53.html
-122.500232979867988,37.899452573340426,South Fort Funston Parking Lot,Parking Lot,Fort Funston,San Francisco,,,,   -122.50023298000,     37.71329778620,from O:\gis_projects\_Parkwide\park_locations_2011\NAD83_UTM10\GGNRAParking_pts_201111.shp,0,54,SouthFor54.html
-122.500453493633657,37.899637438150982,Chip Trail,Trailhead,Fort Funston,San Francisco,,,,   -122.50045349400,     37.71348234500,from Trails_pts_100ft_20111121,0,55,ChipTrai55.html
-122.501735999716402,37.900055785513082,Fort Funston,Park,Fort Funston,San Francisco,,http://www.parksconservancy.org/visit/park-sites/fort-funston.html,"Skyline Blvd., San Francisco, CA 94101",   -122.50173600000,     37.71390000010,"Harvested from the GGNPC website, 10/14/2011",9999,56,FortFuns56.html
-122.502730859441414,37.900811579942662,Coastal Trail,Trailhead,Fort Funston,San Francisco,,,,   -122.50273085900,     37.71465454390,"Monica Stafford, 2/15/2012",0,57,CoastalT57.html
-122.501605758099089,37.901135786881937,Fort Funston Main Parking Lot,Parking Lot,Fort Funston,San Francisco,,,,   -122.50160575800,     37.71497821440,All Maria and Galena sites,96,58,FortFuns58.html
-122.501173135631532,37.901740341034518,Chip Trail,Trailhead,Fort Funston,San Francisco,,,,   -122.50117313600,     37.71558176830,"Monica Stafford, 2/15/2012",0,59,ChipTrai59.html
-122.500946000157668,37.90203305730811,FORT FUNSTON,Restoration Site,Fort Funston,San Francisco,,,,   -122.50094600000,     37.71587400030,Park Stewardship Restoration Sites and Meeting Locations,155,60,FORTFUNS60.html
-122.500663999743608,37.905143200857417,Fort Funston Muir Drive Meeting Location and bus stop,Meeting Place,Fort Funston,San Francisco,,,,   -122.50066400000,     37.71897899960,All Maria and Galena sites,97,61,FortFuns61.html
-122.500610160930037,37.90515244498701,Battery Davis Trail,Trailhead,Fort Funston,San Francisco,,,,   -122.50061016100,     37.71898822840,from Trails_pts_100ft_20111121,0,62,BatteryD62.html
-122.507034871761832,37.91694295796384,Parking Lot,Parking Lot,Ocean Beach,San Francisco,,,,   -122.50703487200,     37.73075925950,from O:\gis_projects\_Parkwide\park_locations_2011\NAD83_UTM10\GGNRAParking_pts_201111.shp,0,63,ParkingL63.html
-122.50719114695373,37.920865514017088,Parking Lot,Parking Lot,Ocean Beach,San Francisco,,,,   -122.50719114700,     37.73467534120,from O:\gis_projects\_Parkwide\park_locations_2011\NAD83_UTM10\GGNRAParking_pts_201111.shp,0,64,ParkingL64.html
-122.507023821791819,37.92137925316996,Restroom,Restroom,Ocean Beach,San Francisco,,,,   -122.50702382200,     37.73518823270,from O:\gis_projects\_Parkwide\Website\Web_Team\Park_locations\NAD83_UTM10\GGNRABuildings_pts_201111.shp,0,65,Restroom65.html
-122.507164000018435,37.921493208130165,Ocean Beach at Sloat,Meeting Place,Ocean Beach,San Francisco,,,,   -122.50716400000,     37.73530199960,All Maria and Galena sites,71,66,OceanBea66.html
-122.506958000411302,37.927881744428618,Ocean Beach Taraval Meeting Location,Meeting Place,Ocean Beach,San Francisco,,,,   -122.50695800000,     37.74167999960,All Maria and Galena sites,74,67,OceanBea67.html
-122.507194999649386,37.92973079282693,Santiago and the Great Highway,Meeting Place,Ocean Beach,San Francisco,,,,   -122.50719500000,     37.74352600020,All Maria and Galena sites,72,68,Santiago68.html
-122.508719999827974,37.939051143989566,Noriega Beach Cleanup,Meeting Place,Ocean Beach,San Francisco,,,,   -122.50872000000,     37.75283100040,All Maria and Galena sites,75,69,NoriegaB69.html
-122.509682000124116,37.946463337662465,Ocean Beach and Judah,Meeting Place,Ocean Beach,San Francisco,,,,   -122.50968200000,     37.76023099990,All Maria and Galena sites,76,70,OceanBea70.html
-122.511196999841516,37.95338571510203,Ocean Beach,Park,Ocean Beach,San Francisco,,http://www.parksconservancy.org/visit/park-sites/ocean-beach.html,"Point Lobos Avenue/Great Highway, San Francisco, CA 94121",   -122.51119700000,     37.76714200020,"Harvested from the GGNPC website, 10/14/2011",9999,71,OceanBea71.html
-122.510234406892167,37.955609573560885,Restroom,Restroom,Ocean Beach,San Francisco,,,,   -122.51023440700,     37.76936220600,"Ally Gregg-Zellars, 1/3/12",0,72,Restroom72.html
-122.510994000372648,37.955671469424573,"Ocean Beach, Stairwell 17",Meeting Place,Ocean Beach,San Francisco,,,,   -122.51099400000,     37.76942400020,All Maria and Galena sites,73,73,OceanBea73.html
-122.510234406892167,37.955711065049051,Beach Chalet,Cafe,Ocean Beach,San Francisco,,,,   -122.51023440700,     37.76946353080,"Ally Gregg-Zellars, 1/3/12",0,74,BeachCha74.html
-122.511497000186225,37.955790665260722,Ocean Beach,Beach,Ocean Beach,San Francisco,,,,   -122.51149700000,     37.76954300030,2011 Junior Rangers,189,75,OceanBea75.html
-122.511696741965167,37.960810261731545,Ocean Beach-Stairwell # 5,Meeting Place,Ocean Beach,San Francisco,,,,   -122.51169674200,     37.77455435650,All Maria and Galena sites,70,76,OceanBea76.html
-122.511108000233918,37.961441941517577,Sutro Dunes Meeting Location,Meeting Place,Sutro Historic District,San Francisco,,,,   -122.51110800000,     37.77518499970,All Maria and Galena sites,78,77,SutroDun77.html
-122.510036113575566,37.961484467393142,Balboa Staircase,Trailhead,Sutro Historic District,San Francisco,,,,   -122.51003611400,     37.77522745580,from Trails_pts_100ft_20111121,0,78,BalboaSt78.html
-122.50920899989525,37.963301993511259,Sutro Slope,Meeting Place,Sutro Historic District,San Francisco,,,,   -122.50920900000,     37.77704199990,All Maria and Galena sites,77,79,SutroSlo79.html
-122.509333544307452,37.963668102856893,48th to Sutro Loop Trail,Trailhead,Sutro Historic District,San Francisco,,,,   -122.50933354400,     37.77740750860,from Trails_pts_100ft_20111121,0,80,48thtoSu80.html
-122.511124000072442,37.964166411725408,Sutro Heights Park,Site of Interest,Sutro Historic District,San Francisco,,,,   -122.51112400000,     37.77790500010,2011 Junior Rangers,204,81,SutroHei81.html
-122.511575300559471,37.9642312602899,Sutro Historic District,Park,Sutro Historic District,San Francisco,,http://www.parksconservancy.org/visit/park-sites/sutro-historic-district.html,"Point Lobos Avenue/El Camino Del Mar, San Francisco, CA 94121",   -122.51157530100,     37.77796974230,"Harvested from the GGNPC website, 10/14/2011",9999,82,SutroHis82.html
-122.513900000384552,37.964562060918674,Cliff House,Park,Cliff House,San Francisco,,http://www.parksconservancy.org/visit/park-sites/cliff-house.html,"1090 Point Lobos Avenue, San Francisco, CA 94121",   -122.51390000000,     37.77830000030,"Harvested from the GGNPC website, 10/14/2011",9999,83,CliffHou83.html
-122.514035035388417,37.964692929074445,Sutro's at the Cliff House,Cafe,Cliff House,San Francisco,,http://www.cliffhouse.com/,"1090 Point Lobos Avenue, San Francisco, CA 94121",   -122.51403503500,     37.77843065390,"Updated Sara Solomon, 4/17/2013",0,84,CliffHou84.html
-122.511888811419311,37.965136013417755,"Parking Lot, Sutro Park (RN P904)",Parking Lot,Sutro Historic District,San Francisco,,,,   -122.51188881100,     37.77887301150,from O:\gis_projects\_Parkwide\park_locations_2011\NAD83_UTM10\GGNRAParking_pts_201111.shp,0,85,ParkingL85.html
-122.512802777126268,37.965513123172613,Louis' Restaurant,Cafe,Lands End,San Francisco,,http://louissf.com/,,   -122.51280277700,     37.77924950280,"Updated Sara Solomon, 4/17/2013",0,86,LouisRes86.html
-122.509887999731248,37.965893243366295,Sutro Heights Meeting Location,Meeting Place,Sutro Historic District,San Francisco,,,,   -122.50988800000,     37.77962899960,All Maria and Galena sites,81,87,SutroHei87.html
-122.51154830920693,37.965938085153759,Lands End Lookout Visitor Center,Visitor Center,Lands End,San Francisco,,,,   -122.51154830900,     37.77967376780,"added by M. Norelli, test data",0,88,LandsEnd88.html
-122.509805621831802,37.966020524499896,Sutro Heights Loop Trail,Trailhead,Sutro Historic District,San Francisco,,,,   -122.50980562200,     37.77975607200,from Trails_pts_100ft_20111121,0,89,SutroHei89.html
-122.511303384243703,37.966499498349386,Lands End Parking Lot,Parking Lot,Lands End,San Francisco,,,,   -122.51130338400,     37.78023426040,Presidio and San Francisco Restoration sites,18,90,LandsEnd90.html
-122.514153000360537,37.966970009139693,Sutro Baths,Site of Interest,Lands End,San Francisco,,,,   -122.51415300000,     37.78070399970,2011 Junior Rangers,188,91,SutroBat91.html
-122.510095479622478,37.9670092731685,Oceanview Trailhead,Trailhead,Lands End,San Francisco,,,,   -122.51009548000,     37.78074319930,"M. Norelli, 2/16/2012",0,92,Oceanvie92.html
-122.511741999793244,37.967039122946318,Lands End meeting location,Meeting Place,Lands End,San Francisco,,,,   -122.51174200000,     37.78077300020,Park Stewardship Restoration Sites and Meeting Locations,124,93,LandsEnd93.html
-122.511450407210376,37.967052973632264,Lands End,Bike Rack,Lands End,San Francisco,,,,   -122.51145040700,     37.78078682810,"Ally Gregg-Zellars, 1/3/12",0,94,LandsEnd94.html
-122.511727717659838,37.967225514477541,Lands End Trailhead,Trailhead,Lands End,San Francisco,,,,   -122.51172771800,     37.78095908610,"Michael Norelli, 1/3/12",0,95,LandsEnd95.html
-122.514340770709865,37.96738782494208,Overlook,Overlook,Lands End,San Francisco,,,,   -122.51434077100,     37.78112113040,"M. Norelli, 2/16/2012",0,96,Overlook96.html
-122.509609321412853,37.967861825332335,West Fort Miley,Site of Interest,Lands End,San Francisco,,,,   -122.50960932100,     37.78159435370,"Mike Hsu, 2/14/2012",0,97,WestFort97.html
-122.511741999793244,37.968208039256773,LANDS END,Restoration Site,Lands End,San Francisco,,,,   -122.51174200000,     37.78194000000,Park Stewardship Restoration Sites and Meeting Locations,154,98,LANDSEND98.html
-122.509055756317949,37.96823365076807,"Parking Lot, Fort Miley West",Parking Lot,Lands End,San Francisco,,,,   -122.50905575600,     37.78196556960,from O:\gis_projects\_Parkwide\park_locations_2011\NAD83_UTM10\GGNRAParking_pts_201111.shp,0,99,ParkingL99.html
-122.493673763733057,37.968289532721663,Playground,Site of Interest,Lands End,San Francisco,,,,   -122.49367376400,     37.78202135990,"M. Norelli, 2/16/2012",0,100,Playgrou100.html
-122.502102579570263,37.968356997145129,East Fort Miley,Site of Interest,Lands End,San Francisco,,,,   -122.50210258000,     37.78208871370,"M. Norelli, 2/16/2012",0,101,EastFort101.html
-122.494439950143459,37.968418235246411,Lincoln Park Golf Course Clubhouse,Building,Lands End,San Francisco,,,,   -122.49443995000,     37.78214985140,"M. Norelli, 2/16/2012",0,102,LincolnP102.html
-122.504826597269499,37.968440950688553,Veteran's Administration Hospital,Building,Lands End,San Francisco,,,,   -122.50482659700,     37.78217252960,"M. Norelli, 2/16/2012",0,103,Veterans103.html
-122.495301315403196,37.968508802453194,Parking,Parking Lot,Lands End,San Francisco,,,,   -122.49530131500,     37.78224027020,"M. Norelli, 2/16/2012",0,104,Parking104.html
-122.510098079562553,37.969028423669613,Octogon House,Site of Interest,Lands End,San Francisco,,,,   -122.51009808000,     37.78275903960,"Michael Norelli, 1/3/12",0,105,OctogonH105.html
-122.510978999680944,37.96911051885273,Memorial Parking Lot,Parking Lot,Lands End,San Francisco,,,,   -122.51097900000,     37.78284100020,All Maria and Galena sites,98,106,Memorial106.html
-122.510415107670951,37.969376539088024,Portable Restroom,Restroom,Lands End,San Francisco,,,,   -122.51041510800,     37.78310658440,"Monica Stafford, 1/3/12",0,107,Portable107.html
-122.511303864481576,37.96965516057741,Memorial Parking Lot meeting location,Meeting Place,Lands End,San Francisco,,,,   -122.51130386400,     37.78338474920,Park Stewardship Restoration Sites and Meeting Locations,171,108,Memorial108.html
-122.511391065445196,37.969684565342789,Lifesaving Station Overlook,Overlook,Lands End,San Francisco,,,,   -122.51139106500,     37.78341410580,"Mike Hsu, 2/14/2012",0,109,Lifesavi109.html
-122.497495971461774,37.970303478723622,Lincoln Park Golf Course,Site of Interest,Lands End,San Francisco,,,,   -122.49749597100,     37.78403200480,"M. Norelli, 2/16/2012",0,110,LincolnP110.html
-122.509253453383977,37.97035088954307,Mile Rock Overlook,Overlook,Lands End,San Francisco,,,,   -122.50925345300,     37.78407933790,"Mike Hsu, 2/14/2012",0,111,MileRock111.html
-122.500375119515979,37.971209158426085,Palace of the Legion of Honor,Building,Lands End,San Francisco,,,,   -122.50037512000,     37.78493620020,"M. Norelli, 2/16/2012",0,112,Palaceof112.html
-122.500499335675642,37.972039494296432,East Wash - Legion of Honor,Meeting Place,Lands End,San Francisco,,,,   -122.50049933600,     37.78576517550,Presidio and San Francisco Restoration sites,10,113,EastWash113.html
-122.505585000047589,37.972212602448963,West Wash- a Lands End restoration sub-site,Restoration Site,Lands End,San Francisco,,,,   -122.50558500000,     37.78593800000,Park Stewardship Restoration Sites and Meeting Locations,125,114,WestWash114.html
-122.505213192434709,37.972432998883313,"Parking Lot, Golf Cart Access",Parking Lot,Lands End,San Francisco,,,,   -122.50521319200,     37.78615803540,from O:\gis_projects\_Parkwide\park_locations_2011\NAD83_UTM10\GGNRAParking_pts_201111.shp,0,115,ParkingL115.html
-122.4941790001605,37.972717429424939,Eagle's Point volunteer meeting location,Meeting Place,Lands End,San Francisco,,,,   -122.49417900000,     37.78644199990,Park Stewardship Restoration Sites and Meeting Locations,128,116,EaglesPo116.html
-122.505067000441528,37.972925770456662,Lands End,Park,Lands End,San Francisco,,http://www.parksconservancy.org/visit/park-sites/lands-end.html,"El Camino Del Mar, San Francisco, CA 94121",   -122.50506700000,     37.78664999960,"Harvested from the GGNPC website, 10/14/2011",9999,117,LandsEnd117.html
-122.494656612112806,37.973038538633546,Eagle's Point Overlook,Overlook,Lands End,San Francisco,,,,   -122.49465661200,     37.78676258300,"Monica Stafford, 1/3/12",0,118,EaglesPo118.html
-122.217590000278179,37.973202223501339,Peralta Hacienda,Site of Interest,Crissy Field,Alameda,,,,   -122.21759000000,     37.78692599970,2011 Junior Rangers,202,119,PeraltaH119.html
-122.471358178936669,37.973247840801243,Mountain Lake Playground,Site of Interest,Presidio of San Francisco,San Francisco,,,,   -122.47135817900,     37.78697154230,"M. Norelli, 2/16/2012",0,120,Mountain120.html
-122.500586999790073,37.973263323713233,East Wash - a Lands End restoration sub-site,Restoration Site,Lands End,San Francisco,,,,   -122.50058700000,     37.78698699990,Park Stewardship Restoration Sites and Meeting Locations,127,121,EastWash121.html
-122.474431150676921,37.973277541004322,15th Avenue Gate,Access,Presidio of San Francisco,San Francisco,,,,   -122.47443115100,     37.78700119390,"Mike Hsu, 2/14/2012",0,122,15thAven122.html
-122.471762686798343,37.973301466192773,Restroom,Restroom,Presidio of San Francisco,San Francisco,,,,   -122.47176268700,     37.78702507980,"M. Norelli, 2/16/2012",0,123,Restroom123.html
-122.4733527223501,37.973490188723481,14th Avenue Gate,Access,Presidio of San Francisco,San Francisco,,,,   -122.47335272200,     37.78721349320,"Mike Hsu, 2/14/2012",0,124,14thAven124.html
-122.506186999929966,37.973576837355814,Mile Rock Beach,Beach,Lands End,San Francisco,,,,   -122.50618700000,     37.78729999990,2011 Junior Rangers,187,125,MileRock125.html
-122.473855051269439,37.973669476291086,Parking,Parking Lot,Presidio of San Francisco,San Francisco,,,,   -122.47385505100,     37.78739248710,from O:\gis_projects\_Parkwide\park_locations_2011\NAD83_UTM10\GGNRAParking_pts_201111.shp,0,126,Parking126.html
-122.490555000312938,37.973714062172874,China Beach Parking Lot,Parking Lot,China Beach,San Francisco,,,,   -122.49055500000,     37.78743699990,All Maria and Galena sites,87,127,ChinaBea127.html
-122.471046282359922,37.973754369265372,Mountain Lake,Site of Interest,Presidio of San Francisco,San Francisco,,,,   -122.47104628200,     37.78747724100,"M. Norelli, 2/14/2012",0,128,Mountain128.html
-122.484149801172208,37.973966858421058,25th Avenue Gate,Access,Presidio of San Francisco,San Francisco,,,,   -122.48414980100,     37.78768938210,"Mike Hsu, 2/14/2012",0,129,25thAven129.html
-122.472672000312343,37.97397849582547,Park Scrub,Meeting Place,Presidio of San Francisco,San Francisco,,,,   -122.47267200000,     37.78770100040,Presidio and San Francisco Restoration sites,29,130,ParkScru130.html
-122.468552000074581,37.974088675983893,Mountain Lake Meeting Spot,Meeting Place,Presidio of San Francisco,San Francisco,,,,   -122.46855200000,     37.78781100010,Presidio and San Francisco Restoration sites,23,131,Mountain131.html
-122.47527704310086,37.974158994045204,Parking,Parking Lot,Presidio of San Francisco,San Francisco,,,,   -122.47527704300,     37.78788120300,Presidio and San Francisco Restoration sites,45,132,Parking132.html
-122.475616000278009,37.974203864574136,Lobos Creek Valley Overlook,Meeting Place,Presidio of San Francisco,San Francisco,,,,   -122.47561600000,     37.78792600000,Presidio and San Francisco Restoration sites,47,133,LobosCre133.html
-122.491093999987953,37.974249940369575,China Beach,Park,China Beach,San Francisco,,http://www.parksconservancy.org/visit/park-sites/china-beach.html,"Seacliff, San Francisco, CA 94121",   -122.49109400000,     37.78797200030,"Harvested from the GGNPC website, 10/14/2011",9999,134,ChinaBea134.html
-122.505857566573255,37.974267969832802,Rock Labyrinth,Site of Interest,Lands End,San Francisco,,,,   -122.50585756700,     37.78799000020,"Ally Gregg-Zellars, 1/3/12",0,135,RockLaby135.html
-122.490789780923521,37.974310097431974,Restroom,Restroom,China Beach,San Francisco,,,,   -122.49078978100,     37.78803205880,"Mike Hsu, 2/14/2012",0,136,Restroom136.html
-122.473394422114737,37.974313426779759,Parking,Parking Lot,Presidio of San Francisco,San Francisco,,,,   -122.47339442200,     37.78803538270,from O:\gis_projects\_Parkwide\park_locations_2011\NAD83_UTM10\GGNRAParking_pts_201111.shp,0,137,Parking137.html
-122.475744114998733,37.974427295695634,Lobos Creek Valley Overlook,Overlook,Presidio of San Francisco,San Francisco,,,,   -122.47574411500,     37.78814906510,from O:\gis_projects\_Parkwide\Website\Web_Team\Park_locations\NAD83_UTM10\GGNRABuildings_pts_201111.shp,0,138,LobosCre138.html
-122.481879999562196,37.974826884956038,Lobos Creek Meeting Location,Meeting Place,Presidio of San Francisco,San Francisco,,,,   -122.48188000000,     37.78854799990,All Maria and Galena sites,82,139,LobosCre139.html
-122.481465774525702,37.974842255262722,Parking,Parking Lot,Presidio of San Francisco,San Francisco,,,,   -122.48146577500,     37.78856334500,from O:\gis_projects\_Parkwide\park_locations_2011\NAD83_UTM10\GGNRAParking_pts_201111.shp,0,140,Parking140.html
-122.474621274551978,37.974843418192258,Presidio Landmark Apartments,Building,Presidio of San Francisco,San Francisco,,,,   -122.47462127500,     37.78856450600,"M. Norelli, 2/14/2012",0,141,Presidio141.html
-122.482449857674609,37.975763117870436,Parking,Parking Lot,Presidio of San Francisco,San Francisco,,,,   -122.48244985800,     37.78948269950,from O:\gis_projects\_Parkwide\park_locations_2011\NAD83_UTM10\GGNRAParking_pts_201111.shp,0,142,Parking142.html
-122.459506993053154,37.975913945558304,Arguello Gate,Access,Presidio of San Francisco,San Francisco,,,,   -122.45950699300,     37.78963328020,"M. Norelli, 2/16/2012",0,143,Arguello143.html
-122.474045331626613,37.976052390882685,Marine Cemetary Vista,Overlook,Presidio of San Francisco,San Francisco,,,,   -122.47404533200,     37.78977149880,"Mike Hsu, 2/14/2012",0,144,MarineCe144.html
-122.471221999995194,37.976499624055371,Mountain Lake - Park Blvd. Meeting Location,Meeting Place,Presidio of San Francisco,San Francisco,,,,   -122.47122200000,     37.79021799960,Presidio and San Francisco Restoration sites,25,145,Mountain145.html
-122.459379706608033,37.976811592600647,Parking,Parking Lot,Presidio of San Francisco,San Francisco,,,,   -122.45937970700,     37.79052945730,from O:\gis_projects\_Parkwide\park_locations_2011\NAD83_UTM10\GGNRAParking_pts_201111.shp,0,146,Parking146.html
-122.459735490100556,37.976887793723847,Restroom,Restroom,Presidio of San Francisco,San Francisco,,,,   -122.45973549000,     37.79060553360,"M. Norelli, 2/16/2012",0,147,Restroom147.html
-122.459754659150036,37.976947060762761,Presidio Golf Course Clubhouse,Building,Presidio of San Francisco,San Francisco,,,,   -122.45975465900,     37.79066470360,"M. Norelli, 2/16/2012",0,148,Presidio148.html
-122.476012999700004,37.977027488423097,Wherry Corridor Meeting Spot,Meeting Place,Presidio of San Francisco,San Francisco,,,,   -122.47601300000,     37.79074499960,Presidio and San Francisco Restoration sites,42,149,WherryCo149.html
-122.483808432912724,37.977129165882644,Parking,Parking Lot,Baker Beach,San Francisco,,,,   -122.48380843300,     37.79084651060,from O:\gis_projects\_Parkwide\park_locations_2011\NAD83_UTM10\GGNRAParking_pts_201111.shp,0,150,Parking150.html
-122.451787064221506,37.977398841968203,Julius Kahn playground,Parking Lot,Presidio of San Francisco,San Francisco,,,,   -122.45178706400,     37.79111574510,from O:\gis_projects\_Parkwide\park_locations_2011\NAD83_UTM10\GGNRAParking_pts_201111.shp,0,151,JuliusKa151.html
-122.454014886377777,37.977398984294069,Julius Kahn Playground,Site of Interest,Presidio of San Francisco,San Francisco,,,,   -122.45401488600,     37.79111588720,"M. Norelli, 2/16/2012",0,152,JuliusKa152.html
-122.453733703447512,37.977526552449348,Restroom,Restroom,Presidio of San Francisco,San Francisco,,,,   -122.45373370300,     37.79124324650,"M. Norelli, 2/16/2012",0,153,Restroom153.html
-122.466260486132427,37.978167133394081,Presidio Golf Course,Site of Interest,Presidio of San Francisco,San Francisco,,,,   -122.46626048600,     37.79188277870,"M. Norelli, 2/16/2012",0,154,Presidio154.html
-122.447774378284834,37.978189025457723,Presidio Gate,Access,Presidio of San Francisco,San Francisco,,,,   -122.44777437800,     37.79190463490,"M. Norelli, 2/16/2012",0,155,Presidio155.html
-122.474640000235652,37.978200408826325,Graded Area 9,Meeting Place,Presidio of San Francisco,San Francisco,,,,   -122.47464000000,     37.79191599960,Presidio and San Francisco Restoration sites,15,156,GradedAr156.html
-122.460017985141732,37.978213574871731,Spire,Site of Interest,Presidio of San Francisco,San Francisco,,,,   -122.46001798500,     37.79192914410,"Mike Hsu, 2/14/2012",0,157,Spire157.html
-122.458534242261337,37.978335262602371,Parking,Parking Lot,Presidio of San Francisco,San Francisco,,,,   -122.45853424200,     37.79205063260,from O:\gis_projects\_Parkwide\park_locations_2011\NAD83_UTM10\GGNRAParking_pts_201111.shp,0,158,Parking158.html
-122.458237721393559,37.978349218646052,Inspiration Point Overlook,Overlook,Presidio of San Francisco,San Francisco,,,,   -122.45823772100,     37.79206456580,from O:\gis_projects\_Parkwide\Website\Web_Team\Park_locations\NAD83_UTM10\GGNRABuildings_pts_201111.shp,0,159,Inspirat159.html
-122.458336000206103,37.978444809391718,Inspiration Point,Meeting Place,Presidio of San Francisco,San Francisco,,,,   -122.45833600000,     37.79216000010,Presidio and San Francisco Restoration sites,17,160,Inspirat160.html
-122.448656442340749,37.978480268353039,Parking,Parking Lot,Presidio of San Francisco,San Francisco,,,,   -122.44865644200,     37.79219540100,from O:\gis_projects\_Parkwide\park_locations_2011\NAD83_UTM10\GGNRAParking_pts_201111.shp,0,161,Parking161.html
-122.483068350223959,37.978671213827944,Restroom,Restroom,Baker Beach,San Francisco,,,,   -122.48306835000,     37.79238603390,"M. Norelli, 2/16/2012",0,162,Restroom162.html
-122.453208761974622,37.978747692364252,Paul Goode Field,Site of Interest,Presidio of San Francisco,San Francisco,,,,   -122.45320876200,     37.79246238720,"M. Norelli, 2/16/2012",0,163,PaulGood163.html
-122.483385999763897,37.978771343680826,Baker Beach,Park,Baker Beach,San Francisco,,http://www.parksconservancy.org/visit/park-sites/baker-beach.html,"Battery Chamberlin Road, Presidio of San Francisco, CA 94129",   -122.48338600000,     37.79248599980,"Harvested from the GGNPC website, 10/14/2011",9999,164,BakerBea164.html
-122.448562232061178,37.978781129034765,Presidio Overlook,Overlook,Presidio of San Francisco,San Francisco,,,,   -122.44856223200,     37.79249576920,from O:\gis_projects\_Parkwide\Website\Web_Team\Park_locations\NAD83_UTM10\GGNRABuildings_pts_201111.shp,0,165,Presidio165.html
-122.482406999583134,37.978861491804217,Parking,Parking Lot,Baker Beach,San Francisco,,,,   -122.48240700000,     37.79257600040,Presidio and San Francisco Restoration sites,3,166,Parking166.html
-122.483212344274165,37.979030651497183,Parking,Parking Lot,Baker Beach,San Francisco,,,,   -122.48321234400,     37.79274488320,from O:\gis_projects\_Parkwide\park_locations_2011\NAD83_UTM10\GGNRAParking_pts_201111.shp,0,167,Parking167.html
-122.455330000079272,37.979201047076565,El Polin Spring,Meeting Place,Presidio of San Francisco,San Francisco,,,,   -122.45533000000,     37.79291499980,Presidio and San Francisco Restoration sites,11,168,ElPolinS168.html
-122.457047000118735,37.97943042230078,Mustard Gas Site,Meeting Place,Presidio of San Francisco,San Francisco,,,,   -122.45704700000,     37.79314399960,Presidio and San Francisco Restoration sites,26,169,MustardG169.html
-122.482818999696917,37.979862129003386,Battery Chamberlin,Building,Baker Beach,San Francisco,,,,   -122.48281900000,     37.79357499970,2011 Junior Rangers,186,170,BatteryC170.html
-122.47631800027537,37.980000355310231,Wherry Dunes,Meeting Place,Presidio of San Francisco,San Francisco,,,,   -122.47631800000,     37.79371299980,Presidio and San Francisco Restoration sites,43,171,WherryDu171.html
-122.449411067066933,37.980167677334876,Woodline,Site of Interest,Presidio of San Francisco,San Francisco,,,,   -122.44941106700,     37.79388004790,"Mike Hsu, 2/14/2012",0,172,Woodline172.html
-122.478744999781767,37.980916855184148,North Pershing Dunes,Meeting Place,Presidio of San Francisco,San Francisco,,,,   -122.47874500000,     37.79462799970,Presidio and San Francisco Restoration sites,28,173,NorthPer173.html
-122.458362674997318,37.981274055092562,Pop Hicks Field,Site of Interest,Presidio of San Francisco,San Francisco,,,,   -122.45836267500,     37.79498461500,"M. Norelli, 2/16/2012",0,174,PopHicks174.html
-122.457105753727404,37.981302801298405,Parking,Parking Lot,Presidio of San Francisco,San Francisco,,,,   -122.45710575400,     37.79501331420,from O:\gis_projects\_Parkwide\park_locations_2011\NAD83_UTM10\GGNRAParking_pts_201111.shp,0,175,Parking175.html
-122.482215999768442,37.981440713182153,Baker Beach Battery Chamberlain Site,Meeting Place,Baker Beach,San Francisco,,,,   -122.48221600000,     37.79515100040,Presidio and San Francisco Restoration sites,5,176,BakerBea176.html
-122.453437190673611,37.981750727550839,Morton Street Field,Site of Interest,Presidio of San Francisco,San Francisco,,,,   -122.45343719100,     37.79546050750,"M. Norelli, 2/16/2012",0,177,MortonSt177.html
-122.479711746699593,37.981943319538999,Parking,Parking Lot,Presidio of San Francisco,San Francisco,,,,   -122.47971174700,     37.79565278430,from O:\gis_projects\_Parkwide\park_locations_2011\NAD83_UTM10\GGNRAParking_pts_201111.shp,0,178,Parking178.html
-122.477218999557039,37.982131843524115,Rob Hill Campground,Meeting Place,Presidio of San Francisco,San Francisco,,,,   -122.47721900000,     37.79584099990,Presidio and San Francisco Restoration sites,35,179,RobHillC179.html
-122.477830092484552,37.982451991797824,Immigrant Point Overlook,Overlook,Presidio of San Francisco,San Francisco,,,,   -122.47783009200,     37.79616062430,from O:\gis_projects\_Parkwide\Website\Web_Team\Park_locations\NAD83_UTM10\GGNRABuildings_pts_201111.shp,16,180,Immigran180.html
-122.479729000193075,37.982544518847796,North Baker Beach - Sandladder,Meeting Place,Baker Beach,San Francisco,,,,   -122.47972900000,     37.79625300000,Presidio and San Francisco Restoration sites,27,181,NorthBak181.html
-122.479558030978211,37.982733406728755,Parking,Parking Lot,Baker Beach,San Francisco,,,,   -122.47955803100,     37.79644157880,from O:\gis_projects\_Parkwide\park_locations_2011\NAD83_UTM10\GGNRAParking_pts_201111.shp,0,182,Parking182.html
-122.475898999838819,37.98276588131894,Rob Hill Campground,Campground,Presidio of San Francisco,San Francisco,,,,   -122.47589900000,     37.79647400030,2011 Junior Rangers,185,183,RobHillC183.html
-122.479430999940618,37.983167538049734,Battery Crosby volunteer meeting location,Meeting Place,Baker Beach,San Francisco,,,,   -122.47943100000,     37.79687499990,Park Stewardship Restoration Sites and Meeting Locations,129,184,BatteryC184.html
-122.475481469793863,37.983494116127645,Parking,Parking Lot,Presidio of San Francisco,San Francisco,,,,   -122.47548147000,     37.79720104370,from O:\gis_projects\_Parkwide\park_locations_2011\NAD83_UTM10\GGNRAParking_pts_201111.shp,0,185,Parking185.html
-122.464717335836156,37.98352406938519,National Cemetery Overlook,Overlook,Presidio of San Francisco,San Francisco,,,,   -122.46471733600,     37.79723094800,from O:\gis_projects\_Parkwide\Website\Web_Team\Park_locations\NAD83_UTM10\GGNRABuildings_pts_201111.shp,0,186,National186.html
-122.448222157926097,37.983577382075509,Presidio Social Club,Cafe,Presidio of San Francisco,San Francisco,,,,   -122.44822215800,     37.79728417340,"M. Norelli, 2/16/2012",0,187,Presidio187.html
-122.454055999784401,37.983633299866206,Remnant Reach,Meeting Place,Presidio of San Francisco,San Francisco,,,,   -122.45405600000,     37.79733999970,Presidio and San Francisco Restoration sites,34,188,RemnantR188.html
-122.458900000134761,37.983793562217691,Presidio of San Francisco,Park,Presidio of San Francisco,San Francisco,,http://www.parksconservancy.org/visit/park-sites/presidio-of-san-francisco.html,"50 Moraga Ave, Presidio of San Francisco, CA 94129",   -122.45890000000,     37.79749999990,"Harvested from the GGNPC website, 10/14/2011",9999,189,Presidio189.html
-122.458853366689382,37.983931529872677,Presidio Officer's Club,Building,Presidio of San Francisco,San Francisco,,,,   -122.45885336700,     37.79763774190,"Monica Stafford, 2/15/2012",0,190,Presidio190.html
-122.467755528094983,37.984042639403199,Parking,Parking Lot,Presidio of San Francisco,San Francisco,,,,   -122.46775552800,     37.79774866970,from O:\gis_projects\_Parkwide\park_locations_2011\NAD83_UTM10\GGNRAParking_pts_201111.shp,0,191,Parking191.html
-122.458206731655153,37.984479652239735,Parking,Parking Lot,Presidio of San Francisco,San Francisco,,,,   -122.45820673200,     37.79818496770,from O:\gis_projects\_Parkwide\park_locations_2011\NAD83_UTM10\GGNRAParking_pts_201111.shp,0,192,Parking192.html
-122.447494263749149,37.984808120089127,Lombard Gate,Access,Presidio of San Francisco,San Francisco,,,,   -122.44749426400,     37.79851289830,"M. Norelli, 2/16/2012",0,193,LombardG193.html
-122.449493860453217,37.984826857534266,Letterman Digital Arts Center,Building,Presidio of San Francisco,San Francisco,,,,   -122.44949386000,     37.79853160500,"M. Norelli, 2/16/2012",0,194,Letterma194.html
-122.457544520363115,37.984889165551564,Film Centre,Building,Presidio of San Francisco,San Francisco,,,,   -122.45754452000,     37.79859381120,"M. Norelli, 2/16/2012",0,195,FilmCent195.html
-122.477722000269921,37.985024575814244,World War II Memorial,Meeting Place,Presidio of San Francisco,San Francisco,,,,   -122.47772200000,     37.79872899990,Presidio and San Francisco Restoration sites,44,196,WorldWar196.html
-122.451795701310431,37.985042844844898,Parking,Parking Lot,Presidio of San Francisco,San Francisco,,,,   -122.45179570100,     37.79874723910,from O:\gis_projects\_Parkwide\park_locations_2011\NAD83_UTM10\GGNRAParking_pts_201111.shp,0,197,Parking197.html
-122.45974144810917,37.985176492246389,Presidio Bowling Alley,Building,Presidio of San Francisco,San Francisco,,,,   -122.45974144800,     37.79888066790,"M. Norelli, 2/14/2012",0,198,Presidio198.html
-122.45962595537334,37.985355448746439,Parking,Parking Lot,Presidio of San Francisco,San Francisco,,,,   -122.45962595500,     37.79905933170,from O:\gis_projects\_Parkwide\park_locations_2011\NAD83_UTM10\GGNRAParking_pts_201111.shp,0,199,Parking199.html
-122.449356042047555,37.985574088873108,Starbucks,Cafe,Presidio of San Francisco,San Francisco,,,,   -122.44935604200,     37.79927761430,"M. Norelli, 2/16/2012",0,200,Starbuck200.html
-122.46184416917292,37.985703034107438,Chapel of Our Lady,Building,Presidio of San Francisco,San Francisco,,,,   -122.46184416900,     37.79940634860,"M. Norelli, 2/14/2012",0,201,Chapelof201.html
-122.454489479305934,37.98572170488994,YMCA,Parking Lot,Presidio of San Francisco,San Francisco,,,,   -122.45448947900,     37.79942498890,from O:\gis_projects\_Parkwide\park_locations_2011\NAD83_UTM10\GGNRAParking_pts_201111.shp,0,202,YMCA202.html
-122.473175000125977,37.985738744332195,Dragonfly Creek Parking Lot,Meeting Place,Presidio of San Francisco,San Francisco,,,,   -122.47317500000,     37.79944200040,Presidio and San Francisco Restoration sites,9,203,Dragonfl203.html
-122.462378050806208,37.985773410535018,Parking,Parking Lot,Presidio of San Francisco,San Francisco,,,,   -122.46237805100,     37.79947661000,from O:\gis_projects\_Parkwide\park_locations_2011\NAD83_UTM10\GGNRAParking_pts_201111.shp,0,204,Parking204.html
-122.4645726996702,37.985886905324627,San Francisco National Cemetery,Site of Interest,Presidio of San Francisco,San Francisco,,,,   -122.46457270000,     37.79958991910,"Mike Hsu, 2/14/2012",0,205,SanFranc205.html
-122.467063999803571,37.985896000653547,Stilwell Hall Directions - Road Closure!,Meeting Place,Presidio of San Francisco,San Francisco,,,,   -122.46706400000,     37.79959899960,All Maria and Galena sites,91,206,Stilwell206.html
-122.473264011424845,37.985995121451658,Parking,Parking Lot,Presidio of San Francisco,San Francisco,,,,   -122.47326401100,     37.79969795830,from O:\gis_projects\_Parkwide\park_locations_2011\NAD83_UTM10\GGNRAParking_pts_201111.shp,0,207,Parking207.html
-122.452536712998793,37.986015134417585,Parking,Parking Lot,Presidio of San Francisco,San Francisco,,,,   -122.45253671300,     37.79971793850,from O:\gis_projects\_Parkwide\park_locations_2011\NAD83_UTM10\GGNRAParking_pts_201111.shp,0,208,Parking208.html
-122.454734969043443,37.986237932581759,YMCA,Building,Presidio of San Francisco,San Francisco,,,,   -122.45473496900,     37.79994037240,"M. Norelli, 2/14/2012",0,209,YMCA209.html
-122.46215715842591,37.986362407150764,Parking,Parking Lot,Presidio of San Francisco,San Francisco,,,,   -122.46215715800,     37.80006464340,from O:\gis_projects\_Parkwide\park_locations_2011\NAD83_UTM10\GGNRAParking_pts_201111.shp,0,210,Parking210.html
-122.461632000216454,37.986376787443426,Pasados del Presidio,Site of Interest,Presidio of San Francisco,San Francisco,,,,   -122.46163200000,     37.80007900010,2011 Junior Rangers,205,211,Pasadosd211.html
-122.461502059872032,37.986563887081871,Golden Gate Club,Building,Presidio of San Francisco,San Francisco,,,,   -122.46150206000,     37.80026579380,"M. Norelli, 2/14/2012",0,212,GoldenGa212.html
-122.454442651606968,37.986578216028605,Parking,Parking Lot,Presidio of San Francisco,San Francisco,,,,   -122.45444265200,     37.80028009930,from O:\gis_projects\_Parkwide\park_locations_2011\NAD83_UTM10\GGNRAParking_pts_201111.shp,0,213,Parking213.html
-122.452479340748823,37.986744447841446,Acre Cafe,Cafe,Presidio of San Francisco,San Francisco,,,,   -122.45247934100,     37.80044605930,"M. Norelli, 2/16/2012",0,214,AcreCafe214.html
-122.457850849237147,37.986783834202051,Parking,Parking Lot,Presidio of San Francisco,San Francisco,,,,   -122.45785084900,     37.80048538130,from O:\gis_projects\_Parkwide\park_locations_2011\NAD83_UTM10\GGNRAParking_pts_201111.shp,0,215,Parking215.html
-122.452635813791602,37.986822812502282,Thoreau Center,Building,Presidio of San Francisco,San Francisco,,,,   -122.45263581400,     37.80052429590,"M. Norelli, 2/16/2012",0,216,ThoreauC216.html
-122.447921637773263,37.987043334316745,Gorgas Gate,Access,Presidio of San Francisco,San Francisco,,,,   -122.44792163800,     37.80074445710,"M. Norelli, 2/16/2012",0,217,GorgasGa217.html
-122.473719432605591,37.987048917443829,US Park Police,Building,Presidio of San Francisco,San Francisco,,,,   -122.47371943300,     37.80075003110,"M. Norelli, 2/16/2012",0,218,USParkPo218.html
-122.454010000361123,37.987095963261147,Wayburn Redwood Grove,Meeting Place,Presidio of San Francisco,San Francisco,,,,   -122.45401000000,     37.80079700000,Presidio and San Francisco Restoration sites,36,219,WayburnR219.html
-122.477935597349784,37.987123650094127,overlook,Parking Lot,Presidio of San Francisco,San Francisco,,,,   -122.47793559700,     37.80082464150,from O:\gis_projects\_Parkwide\park_locations_2011\NAD83_UTM10\GGNRAParking_pts_201111.shp,0,220,overlook220.html
-122.471137999718792,37.98716006833213,Presidio Native Plant Nursery,Building,Presidio of San Francisco,San Francisco,,,,   -122.47113800000,     37.80086100020,2011 Junior Rangers,203,221,Presidio221.html
-122.47798268765078,37.987190698061745,Pacific Overlook,Overlook,Presidio of San Francisco,San Francisco,,,,   -122.47798268800,     37.80089157990,from O:\gis_projects\_Parkwide\Website\Web_Team\Park_locations\NAD83_UTM10\GGNRABuildings_pts_201111.shp,0,222,PacificO222.html
-122.459662743041008,37.987258093735171,Parking,Parking Lot,Presidio of San Francisco,San Francisco,,,,   -122.45966274300,     37.80095886540,from O:\gis_projects\_Parkwide\park_locations_2011\NAD83_UTM10\GGNRAParking_pts_201111.shp,0,223,Parking223.html
-122.472141170978105,37.987314494305117,Recycling Center/Salvage,Building,Presidio of San Francisco,San Francisco,,,,   -122.47214117100,     37.80101517370,from O:\gis_projects\_Parkwide\park_locations_2011\NAD83_UTM10\GGNRAParking_pts_201111.shp,0,224,Recyclin224.html
-122.45216029905842,37.987372182110391,Parking,Parking Lot,Presidio of San Francisco,San Francisco,,,,   -122.45216029900,     37.80107276720,from O:\gis_projects\_Parkwide\park_locations_2011\NAD83_UTM10\GGNRAParking_pts_201111.shp,0,225,Parking225.html
-122.452749306435109,37.987427516137764,Park Intern Housing,Building,Presidio of San Francisco,San Francisco,,,,   -122.45274930600,     37.80112801070,"Monica Stafford, 2/15/2012",0,226,ParkInte226.html
-122.458549881471725,37.987589041265544,Walt Disney Family Museum,Site of Interest,Presidio of San Francisco,San Francisco,,,,   -122.45854988100,     37.80128927180,"Monica Stafford, 2/15/2012",0,227,WaltDisn227.html
-122.471416402844596,37.987658708737378,Parking,Parking Lot,Presidio of San Francisco,San Francisco,,,,   -122.47141640300,     37.80135882530,from O:\gis_projects\_Parkwide\park_locations_2011\NAD83_UTM10\GGNRAParking_pts_201111.shp,0,228,Parking228.html
-122.453823074475139,37.987686687424322,Wayburn Redwood Grove,Site of Interest,Presidio of San Francisco,San Francisco,,,,   -122.45382307400,     37.80138675830,"M. Norelli, 2/16/2012",0,229,WayburnR229.html
-122.473267434244562,37.987724258675065,Parking,Parking Lot,Presidio of San Francisco,San Francisco,,,,   -122.47326743400,     37.80142426810,from O:\gis_projects\_Parkwide\park_locations_2011\NAD83_UTM10\GGNRAParking_pts_201111.shp,0,230,Parking230.html
-122.466972000057623,37.987894268377957,Stilwell Hall Directions - 1st Stop Sign,Access,Presidio of San Francisco,San Francisco,,,,   -122.46697200000,     37.80159399990,All Maria and Galena sites,95,231,Stilwell231.html
-122.473663000147184,37.987947354915832,Presidio Building 1216,Meeting Place,Presidio of San Francisco,San Francisco,,,,   -122.47366300000,     37.80164699960,Park Stewardship Restoration Sites and Meeting Locations,161,232,Presidio232.html
-122.47901899982682,37.987962380172391,PRESIDIO BLUFFS,Restoration Site,Presidio of San Francisco,San Francisco,,,,   -122.47901900000,     37.80166200030,Park Stewardship Restoration Sites and Meeting Locations,153,233,PRESIDIO233.html
-122.458156310265352,37.988072283436985,Presidio Visitor Center (temporary),Visitor Center,Presidio of San Francisco,San Francisco,,,,   -122.45815631000,     37.80177172390,from O:\gis_projects\_Parkwide\buildings_update_2011\shapefiles\GGNRABuildings_201111.shp,0,234,Presidio234.html
-122.456099999615134,37.988210786029988,Presidio Main Post Transit Center,Site of Interest,Presidio of San Francisco,San Francisco,,,,   -122.45610000000,     37.80191000000,Presidio and San Francisco Restoration sites,2,235,Presidio235.html
-122.474694132228223,37.988285593426539,Fort Winfield Scott,Site of Interest,Presidio of San Francisco,San Francisco,,,,   -122.47469413200,     37.80198468510,"Mike Hsu, 2/14/2012",0,236,FortWinf236.html
-122.473644376086924,37.988637265461449,Parking,Parking Lot,Presidio of San Francisco,San Francisco,,,,   -122.47364437600,     37.80233578230,from O:\gis_projects\_Parkwide\park_locations_2011\NAD83_UTM10\GGNRAParking_pts_201111.shp,0,237,Parking237.html
-122.466896000150101,37.988673542262234,Stilwell Hall Directions - 2nd Stop Sign,Access,Presidio of San Francisco,San Francisco,,,,   -122.46689600000,     37.80237199980,All Maria and Galena sites,94,238,Stilwell238.html
-122.467092371615507,37.988922577735188,Pet Cemetery,Site of Interest,Presidio of San Francisco,San Francisco,,,,   -122.46709237200,     37.80262062810,"Monica Stafford, 2/15/2012",0,239,PetCemet239.html
-122.4493505220088,37.989279960756321,Palace of Fine Arts,Building,Presidio of San Francisco,San Francisco,,,,   -122.44935052200,     37.80297742700,"Monica Stafford, 2/15/2012",0,240,Palaceof240.html
-122.477910014335507,37.989312140738463,Battery Godfrey Overlook,Overlook,Presidio of San Francisco,San Francisco,,,,   -122.47791001400,     37.80300955430,from O:\gis_projects\_Parkwide\Website\Web_Team\Park_locations\NAD83_UTM10\GGNRABuildings_pts_201111.shp,0,241,BatteryG241.html
-122.45876993838182,37.989330670981722,Sports Basement,Building,Presidio of San Francisco,San Francisco,,,,   -122.45876993800,     37.80302805430,"M. Norelli, 2/16/2012",0,242,SportsBa242.html
-122.467574999986098,37.989559991630536,Stilwell Hall Directions - 3rd Stop Sign,Access,Presidio of San Francisco,San Francisco,,,,   -122.46757500000,     37.80325700010,All Maria and Galena sites,93,243,Stilwell243.html
-122.476494000297734,37.98961007309822,Langdon Court Parking lot and Meeting Location,Meeting Place,Presidio of San Francisco,San Francisco,,,,   -122.47649400000,     37.80330699970,Park Stewardship Restoration Sites and Meeting Locations,130,244,LangdonC244.html
-122.47786468580648,37.989614892348314,"Parking Lot, Battery Godfrey",Parking Lot,Presidio of San Francisco,San Francisco,,,,   -122.47786468600,     37.80331181110,from O:\gis_projects\_Parkwide\park_locations_2011\NAD83_UTM10\GGNRAParking_pts_201111.shp,0,245,ParkingL245.html
-122.475428236223962,37.989637582458968,Parking,Parking Lot,Presidio of San Francisco,San Francisco,,,,   -122.47542823600,     37.80333446410,from O:\gis_projects\_Parkwide\park_locations_2011\NAD83_UTM10\GGNRAParking_pts_201111.shp,0,246,Parking246.html
-122.466471655942073,37.989674858232405,Parking,Parking Lot,Presidio of San Francisco,San Francisco,,,,   -122.46647165600,     37.80337167900,from O:\gis_projects\_Parkwide\park_locations_2011\NAD83_UTM10\GGNRAParking_pts_201111.shp,0,247,Parking247.html
-122.458030999630836,37.989713241982713,Parking,Parking Lot,Presidio of San Francisco,San Francisco,,,,   -122.45803100000,     37.80341000000,Presidio and San Francisco Restoration sites,48,248,Parking248.html
-122.450109695505816,37.98984514350299,Palace of Fine Arts,Parking Lot,Presidio of San Francisco,San Francisco,,,,   -122.45010969600,     37.80354168590,from O:\gis_projects\_Parkwide\park_locations_2011\NAD83_UTM10\GGNRAParking_pts_201111.shp,0,249,Palaceof249.html
-122.467414999802244,37.989877510846235,Stilwell Hall Directions - 4th Stop Sign,Access,Presidio of San Francisco,San Francisco,,,,   -122.46741500000,     37.80357400030,All Maria and Galena sites,92,250,Stilwell250.html
-122.466498999828872,37.989919578843747,Stilwell Hall Meeting Location,Meeting Place,Crissy Field,San Francisco,,,,   -122.46649900000,     37.80361599960,All Maria and Galena sites,88,251,Stilwell251.html
-122.473381294710848,37.990147968040603,Log Cabin,Building,Presidio of San Francisco,San Francisco,,,,   -122.47338129500,     37.80384401550,"M. Norelli, 2/16/2012",0,252,LogCabin252.html
-122.469183522001757,37.990216388772708,Crissy Field Overlook,Overlook,Presidio of San Francisco,San Francisco,,,,   -122.46918352200,     37.80391232440,from O:\gis_projects\_Parkwide\Website\Web_Team\Park_locations\NAD83_UTM10\GGNRABuildings_pts_201111.shp,0,254,CrissyFi254.html
-122.455261161473246,37.990222735769322,Former Crissy Field Center Building,Building,Presidio of San Francisco,San Francisco,,,,   -122.45526116100,     37.80391866100,"Mike Hsu, 2/14/2012",0,255,FormerCr255.html
-122.476731165011131,37.990252829505046,Golden Gate Overlook,Overlook,Presidio of San Francisco,San Francisco,,,,   -122.47673116500,     37.80394870560,from O:\gis_projects\_Parkwide\Website\Web_Team\Park_locations\NAD83_UTM10\GGNRABuildings_pts_201111.shp,0,256,GoldenGa256.html
-122.429470009033537,37.990310439803395,"Parking Lot, Upper Fort Mason",Parking Lot,Fort Mason,San Francisco,,,,   -122.42947000900,     37.80400622170,from O:\gis_projects\_Parkwide\park_locations_2011\NAD83_UTM10\GGNRAParking_pts_201111.shp,0,257,ParkingL257.html
-122.426794286726803,37.990337995100198,Entrance - Upper Fort Mason,Access,Fort Mason,San Francisco,,,,   -122.42679428700,     37.80403373200,"M. Norelli, 2/15/2012",0,258,Entrance258.html
-122.475253728176895,37.990402961283351,Parking,Parking Lot,Presidio of San Francisco,San Francisco,,,,   -122.47525372800,     37.80409859200,from O:\gis_projects\_Parkwide\park_locations_2011\NAD83_UTM10\GGNRAParking_pts_201111.shp,0,259,Parking259.html
-122.475243000164227,37.990435422305147,Coastal Bluffs meeting location,Meeting Place,Presidio of San Francisco,San Francisco,,,,   -122.47524300000,     37.80413099990,Presidio and San Francisco Restoration sites,19,260,CoastalB260.html
-122.47540300034801,37.990461465167684,Parking,Parking Lot,Presidio of San Francisco,San Francisco,,,,   -122.47540300000,     37.80415700020,Park Stewardship Restoration Sites and Meeting Locations,131,261,Parking261.html
-122.473459997081065,37.990482455475082,Parking,Parking Lot,Presidio of San Francisco,San Francisco,,,,   -122.47345999700,     37.80417795620,from O:\gis_projects\_Parkwide\park_locations_2011\NAD83_UTM10\GGNRAParking_pts_201111.shp,0,262,Parking262.html
-122.469529019948112,37.990499448958481,Parking,Parking Lot,Presidio of San Francisco,San Francisco,,,,   -122.46952902000,     37.80419492200,Presidio and San Francisco Restoration sites,39,263,Parking263.html
-122.455505000055538,37.990522565140104,Crissy Field,Meeting Place,Crissy Field,San Francisco,,,,   -122.45550500000,     37.80421800040,Presidio and San Francisco Restoration sites,8,264,CrissyFi264.html
-122.4298770269031,37.990586505315896,Restroom,Restroom,Fort Mason,San Francisco,,,,   -122.42987702700,     37.80428183600,from O:\gis_projects\_Parkwide\Website\Web_Team\Park_locations\NAD83_UTM10\GGNRABuildings_pts_201111.shp,0,265,Restroom265.html
-122.429450860838116,37.991000641886934,San Francisco Conservation Corps,Site of Interest,Fort Mason,San Francisco,,http://www.sfcc.org/,,   -122.42945086100,     37.80469529580,"Updated Sara Solomon, 4/17/2013",0,266,SanFranc266.html
-122.42988638794624,37.990628326488995,Great Meadow,Water Fountain,Fort Mason,San Francisco,,,,   -122.42988638800,     37.80432358890,"added by M. Norelli, test data",0,267,GreatMea267.html
-122.476661999951247,37.990890165739536,GOLDEN GATE OVERLOOK,Restoration Site,Presidio of San Francisco,San Francisco,,,,   -122.47666200000,     37.80458500020,Park Stewardship Restoration Sites and Meeting Locations,132,268,GOLDENGA268.html
-122.468361446323598,37.990921294483201,Planet Granite,Building,Presidio of San Francisco,San Francisco,,,,   -122.46836144600,     37.80461607810,"M. Norelli, 2/16/2012",0,269,PlanetGr269.html
-122.42593399975415,37.991023383284805,Bldg 34 North,Meeting Place,Fort Mason,San Francisco,,,,   -122.42593400000,     37.80471800000,Park Stewardship Restoration Sites and Meeting Locations,140,270,Bldg34No270.html
-122.428922263451497,37.991071225361637,Building 101,Building,Fort Mason,San Francisco,,,,   -122.42892226300,     37.80476576390,"M. Norelli, 2/14/2012",0,271,Building271.html
-122.455544000055397,37.991206683176308,Crissy Marsh,Site of Interest,Crissy Field,San Francisco,,,,   -122.45554400000,     37.80490100040,2011 Junior Rangers,182,272,CrissyMa272.html
-122.426345489952254,37.991260075944304,"Parking Lot, Fort Mason Quad",Parking Lot,Fort Mason,San Francisco,,,,   -122.42634549000,     37.80495430590,from O:\gis_projects\_Parkwide\park_locations_2011\NAD83_UTM10\GGNRAParking_pts_201111.shp,0,273,ParkingL273.html
-122.426602919089277,37.991286913302332,Building 37,Building,Fort Mason,San Francisco,,,,   -122.42660291900,     37.80498109940,"M. Norelli, 2/14/2012",0,274,Building274.html
-122.468544872947433,37.991296210397962,House of Air,Building,Presidio of San Francisco,San Francisco,,,,   -122.46854487300,     37.80499038130,"M. Norelli, 2/16/2012",0,275,HouseofA275.html
-122.476648829379855,37.991319973345597,Trailhead (Spring 2012),Trailhead,Presidio of San Francisco,San Francisco,to be completed Spring 2012,,,   -122.47664882900,     37.80501410540,"Ally Gregg-Zellars, 1/3/12",0,276,Trailhea276.html
-122.426055607879817,37.991354316119427,Building 35,Building,Fort Mason,San Francisco,,,,   -122.42605560800,     37.80504839210,"M. Norelli, 2/14/2012",0,277,Building277.html
-122.448407047746869,37.991390577584298,Marina Gate,Access,Presidio of San Francisco,San Francisco,,,,   -122.44840704800,     37.80508459430,"M. Norelli, 2/16/2012",0,278,MarinaGa278.html
-122.457358461423752,37.991431045757032,Crissy Field,Park,Crissy Field,San Francisco,,http://www.parksconservancy.org/visit/park-sites/crissy-field.html,"1199 East Beach, Presidio of San Francisco, CA 94129",   -122.45735846100,     37.80512499630,"Harvested from the GGNPC website, 10/14/2011",9999,279,CrissyFi279.html
-122.476376515745017,37.991600291871819,Merchant Road Parking Lot,Parking Lot,Presidio of San Francisco,San Francisco,,,,   -122.47637651600,     37.80529396590,Park Stewardship Restoration Sites and Meeting Locations,133,280,Merchant280.html
-122.433698408154783,37.991502829133353,Entrance - Fort Mason Center,Access,Fort Mason,San Francisco,,,,   -122.43369840800,     37.80519666240,"M. Norelli, 2/15/2012",0,281,Entrance281.html
-122.469688000300835,37.991589308062053,West Crissy Bluffs,Meeting Place,Presidio of San Francisco,San Francisco,,,,   -122.46968800000,     37.80528300000,Presidio and San Francisco Restoration sites,37,282,WestCris282.html
-122.427692545774249,37.991642112606861,Parking Lot,Parking Lot,Fort Mason,San Francisco,,,,   -122.42769254600,     37.80533571830,from O:\gis_projects\_Parkwide\park_locations_2011\NAD83_UTM10\GGNRAParking_pts_201111.shp,0,283,ParkingL283.html
-122.467132881577001,37.991655448862161,NOAA - Gulf of the Farallones National Marine Sanctuary,Building,Crissy Field,San Francisco,,http://farallones.noaa.gov/,,   -122.46713288200,     37.80534903270,"Updated Sara Solomon, 4/17/2013",0,284,Gulfofth284.html
-122.476290285004765,37.991937359055079,Batteries Boutelle and Marcus-Miller Meeting Location,Meeting Place,Presidio of San Francisco,San Francisco,,,,   -122.47629028500,     37.80563048230,All Maria and Galena sites,83,285,Batterie285.html
-122.46696107509328,37.991662884916572,Restroom,Restroom,Crissy Field,San Francisco,,,,   -122.46696107500,     37.80535645660,"M. Norelli, 2/16/2012",0,286,Restroom286.html
-122.42800099974616,37.991673445825398,Building 201,Meeting Place,Fort Mason,San Francisco,,,,   -122.42800100000,     37.80536700030,Presidio and San Francisco Restoration sites,13,287,Building287.html
-122.428068292417635,37.991817237767421,"Fort Mason, Building 201",Visitor Center,Fort Mason,San Francisco,,,,   -122.42806829200,     37.80551055730,"M. Noreli, 2/14/2012",0,288,FortMaso288.html
-122.452427036178619,37.991828068914089,"Parking Lot, East Beach Crissy Field",Parking Lot,Crissy Field,San Francisco,,,,   -122.45242703600,     37.80552137070,from O:\gis_projects\_Parkwide\park_locations_2011\NAD83_UTM10\GGNRAParking_pts_201111.shp,0,289,ParkingL289.html
-122.428203187127224,37.991849642028704,Fort Mason,Park,Fort Mason,San Francisco,,http://www.parksconservancy.org/visit/park-sites/fort-mason.html,"Fort Mason, Building 201, San Francisco, CA 94123",   -122.42820318700,     37.80554290860,"Harvested from the GGNPC website, 10/14/2011",9999,290,FortMaso290.html
-122.427521000093904,37.991863756569302,Fort Mason Flagpole,Meeting Place,Fort Mason,San Francisco,,,,   -122.42752100000,     37.80555700010,All Maria and Galena sites,80,291,FortMaso291.html
-122.425397414758692,37.9918745985253,Parking Lot,Parking Lot,Fort Mason,San Francisco,,,,   -122.42539741500,     37.80556782430,"M. Norelli, 2/14/2012",0,292,ParkingL292.html
-122.451697999862603,37.992036037914566,East Beach Restrooms,Restroom,Crissy Field,San Francisco,,,,   -122.45169800000,     37.80572899990,All Maria and Galena sites,86,293,EastBeac293.html
-122.449181500725487,37.992139170710523,Crissy Field Center,Building,Crissy Field,San Francisco,,,,   -122.44918150100,     37.80583196420,2011 Junior Rangers,181,294,CrissyFi294.html
-122.426472820464141,37.99223953626521,"General's Residence, One Fort Mason",Site of Interest,Fort Mason,San Francisco,,,,   -122.42647282000,     37.80593216570,"Mike Hsu, 2/14/2012",0,295,Generals295.html
-122.44908415720792,37.992291810234683,Beach Hut Cafe,Cafe,Crissy Field,San Francisco,,,,   -122.44908415700,     37.80598435430,from O:\gis_projects\_Parkwide\Website\Web_Team\Park_locations\NAD83_UTM10\GGNRABuildings_pts_201111.shp,0,296,BeachHut296.html
-122.450713635225966,37.992311570048926,"Parking Lot, East Beach Crissy Field",Parking Lot,Crissy Field,San Francisco,,,,   -122.45071363500,     37.80600408180,from O:\gis_projects\_Parkwide\park_locations_2011\NAD83_UTM10\GGNRAParking_pts_201111.shp,0,297,ParkingL297.html
-122.428132233315722,37.992359403103876,Fort Mason Community Garden,Site of Interest,Fort Mason,San Francisco,,http://www.fortmasoncommunitygarden.com/index.html,,   -122.42813223300,     37.80605183670,"Updated Sara Solomon, 4/17/2013",0,298,Communit298.html
-122.44937933988453,37.992431927818345,Crissy Field Center,Bike Rack,Crissy Field,San Francisco,,,,   -122.44937934000,     37.80612424290,"added by M. Norelli, test data",0,299,CrissyFi299.html
-122.449241106891407,37.992446796321481,Crissy Field Center,Bike Rack,Crissy Field,San Francisco,,,,   -122.44924110700,     37.80613908710,"added by M. Norelli, test data",0,300,CrissyFi300.html
-122.450836002379418,37.992612847753932,East Beach,Beach,Crissy Field,San Francisco,,,,   -122.45083600200,     37.80630486730,"added by M. Norelli, test data",0,301,EastBeac301.html
-122.423834959615562,37.992657431642421,San Francisco Maritime Museum,Building,Fort Mason,San Francisco,,,,   -122.42383496000,     37.80634937830,"M. Norelli, 2/14/2012",0,302,SanFranc302.html
-122.476068343978724,37.992659525087198,Parking,Parking Lot,Presidio of San Francisco,San Francisco,,,,   -122.47606834400,     37.80635146830,from O:\gis_projects\_Parkwide\park_locations_2011\NAD83_UTM10\GGNRAParking_pts_201111.shp,0,303,Parking303.html
-122.466049407154316,37.992685459841326,US Coast Guard Pier,Site of Interest,Crissy Field,San Francisco,,,,   -122.46604940700,     37.80637736070,"M. Norelli, 2/16/2012",0,304,USCoastG304.html
-122.431442760075186,37.99279266420983,Reader's Cafe and Bookstore,Cafe,Fort Mason,San Francisco,,,,   -122.43144276000,     37.80648438990,"Monica Stafford, 2/15/2012",0,305,ReadersC305.html
-122.432075115673925,37.992849643919342,Building A,Building,Fort Mason,San Francisco,,,,   -122.43207511600,     37.80654127660,"M. Norelli, 2/14/2012",0,306,Building306.html
-122.431090826580231,37.992886490887841,"Parking Lot, Lower Fort Mason",Parking Lot,Fort Mason,San Francisco,,,,   -122.43109082700,     37.80657806330,from O:\gis_projects\_Parkwide\park_locations_2011\NAD83_UTM10\GGNRAParking_pts_201111.shp,0,307,ParkingL307.html
-122.475507318108086,37.992946881902,Parking,Parking Lot,Golden Gate Bridge,San Francisco,,,,   -122.47550731800,     37.80663835570,from O:\gis_projects\_Parkwide\park_locations_2011\NAD83_UTM10\GGNRAParking_pts_201111.shp,0,308,Parking308.html
-122.431941204822536,37.99295496922813,Cook's and Company,Cafe,Fort Mason,San Francisco,,,,   -122.43194120500,     37.80664642980,"Monica Stafford, 2/15/2012",0,309,Cooksand309.html
-122.447806416632631,37.992969381027109,Parking,Parking Lot,Crissy Field,San Francisco,,,,   -122.44780641700,     37.80666081800,from O:\gis_projects\_Parkwide\park_locations_2011\NAD83_UTM10\GGNRAParking_pts_201111.shp,0,310,Parking310.html
-122.432106393195298,37.993006471208915,Greens Restaurant,Cafe,Fort Mason,San Francisco,,,,   -122.43210639300,     37.80669784760,"Monica Stafford, 2/15/2012",0,311,GreensRe311.html
-122.404335000159946,37.993006623443087,Alcatraz Ferries Pier 33,Meeting Place,Alcatraz,San Francisco,,,,   -122.40433500000,     37.80669799960,All Maria and Galena sites,79,312,Alcatraz312.html
-122.431918599463614,37.993070332078808,Building B,Building,Fort Mason,San Francisco,,,,   -122.43191859900,     37.80676160420,"M. Norelli, 2/14/2012",0,313,Building313.html
-122.431376082540055,37.993127532479171,Building C,Building,Fort Mason,San Francisco,,,,   -122.43137608300,     37.80681871110,"M. Norelli, 2/14/2012",0,314,Building314.html
-122.430824047191891,37.993184732878781,Building D,Building,Fort Mason,San Francisco,,,,   -122.43082404700,     37.80687581810,"M. Norelli, 2/14/2012",0,315,Building315.html
-122.47164199957848,37.993208954320252,Battery East volunteer meeting location,Meeting Place,Fort Point,San Francisco,,,,   -122.47164200000,     37.80689999990,Park Stewardship Restoration Sites and Meeting Locations,134,316,BatteryE316.html
-122.469229493546123,37.993211518879868,West Bluff Picnic Area,Site of Interest,Crissy Field,San Francisco,,,,   -122.46922949400,     37.80690256030,"M. Norelli, 2/16/2012",0,317,WestBluf317.html
-122.472321000313755,37.993262040794058,Battery East Parking Lot,Meeting Place,Presidio of San Francisco,San Francisco,,,,   -122.47232100000,     37.80695299970,Presidio and San Francisco Restoration sites,7,318,BatteryE318.html
-122.428525192083725,37.993262771337747,Parking,Parking Lot,Fort Mason,San Francisco,,,,   -122.42852519200,     37.80695372900,from O:\gis_projects\_Parkwide\park_locations_2011\NAD83_UTM10\GGNRAParking_pts_201111.shp,0,319,Parking319.html
-122.430338637218156,37.993270533476796,Building E,Building,Fort Mason,San Francisco,,,,   -122.43033863700,     37.80696147850,"M. Norelli, 2/14/2012",0,320,Building320.html
-122.472050111023677,37.993354949553336,Parking,Parking Lot,Fort Point,San Francisco,,,,   -122.47205011100,     37.80704575670,from O:\gis_projects\_Parkwide\park_locations_2011\NAD83_UTM10\GGNRAParking_pts_201111.shp,0,321,Parking321.html
-122.428756056146895,37.993444975770949,Cafe Franco - Fisherman's Wharf Hostel,Cafe,Fort Mason,San Francisco,,,,   -122.42875605600,     37.80713563580,from O:\gis_projects\_Parkwide\Website\Web_Team\Park_locations\NAD83_UTM10\GGNRABuildings_pts_201111.shp,0,322,CafeFran322.html
-122.424003999784603,37.993514453082724,Kayaking!,Site of Interest,Fort Mason,San Francisco,,,,   -122.42400400000,     37.80720499960,2011 Junior Rangers,199,323,Kayaking323.html
-122.47476088530648,37.993617863288485,Restroom,Restroom,Golden Gate Bridge,San Francisco,,,,   -122.47476088500,     37.80730824090,"Mike Hsu, 2/14/2012",0,324,Restroom324.html
-122.422533601944068,37.993648675834301,Aquatic Park,Beach,Fort Mason,San Francisco,,,,   -122.42253360200,     37.80733900310,"added by M. Norelli, test data",0,325,AquaticP325.html
-122.474526958152495,37.993685232740582,Parking,Parking Lot,Golden Gate Bridge,San Francisco,,,,   -122.47452695800,     37.80737550030,from O:\gis_projects\_Parkwide\park_locations_2011\NAD83_UTM10\GGNRAParking_pts_201111.shp,0,326,Parking326.html
-122.420546605641178,37.99371789731741,Restroom,Restroom,Fort Mason,San Francisco,,,,   -122.42054660600,     37.80740811150,"M. Norelli, 2/14/2012",0,327,Restroom327.html
-122.470377343239633,37.993761834424902,Parking,Parking Lot,Crissy Field,San Francisco,,,,   -122.47037734300,     37.80745197680,from O:\gis_projects\_Parkwide\park_locations_2011\NAD83_UTM10\GGNRAParking_pts_201111.shp,0,328,Parking328.html
-122.431204760790905,37.993775804832318,Herbst Pavilion,Building,Fort Mason,San Francisco,,,,   -122.43120476100,     37.80746592440,"M. Norelli, 2/14/2012",0,329,HerbstPa329.html
-122.426222032820405,37.993778446859849,Sea Scouts,Site of Interest,Fort Mason,San Francisco,,,,   -122.42622203300,     37.80746856210,"M. Norelli, 2/14/2012",0,330,SeaScout330.html
-122.42057352235004,37.993812260848671,National Park Service Information,Visitor Center,Fort Mason,San Francisco,,,,   -122.42057352200,     37.80750232090,"M. Norelli, 2/14/2012",0,331,National331.html
-122.475211468134574,37.993868597378395,Bridge Cafe,Cafe,Golden Gate Bridge,San Francisco,,,,   -122.47521146800,     37.80755856540,"Mike Hsu, 2/14/2012",0,332,BridgeCa332.html
-122.42642923122385,37.993896673311546,Parking Lot,Parking Lot,Fort Mason,San Francisco,,,,   -122.42642923100,     37.80758659540,"M. Norelli, 2/14/2012",0,333,ParkingL333.html
-122.430081655943482,37.993956940002477,Festival Pavilion,Building,Fort Mason,San Francisco,,,,   -122.43008165600,     37.80764676370,"M. Norelli, 2/14/2012",0,334,Festival334.html
-122.472397000221193,37.99395817859353,BATTERY EAST,Restoration Site,Fort Point,San Francisco,,,,   -122.47239700000,     37.80764800030,Park Stewardship Restoration Sites and Meeting Locations,152,335,BATTERYE335.html
-122.474602724236206,37.994056910067357,Parking,Parking Lot,Golden Gate Bridge,San Francisco,,,,   -122.47460272400,     37.80774657040,from O:\gis_projects\_Parkwide\park_locations_2011\NAD83_UTM10\GGNRAParking_pts_201111.shp,0,336,Parking336.html
-122.420873004685262,37.994073982806704,San Francisco Maritime National Historic Park - Maritime Store,Site of Interest,Fort Mason,San Francisco,,,,   -122.42087300500,     37.80776361530,"M. Norelli, 2/14/2012",0,337,SanFranc337.html
-122.475688677190533,37.994101294865779,Golden Gate Bridge Roundhouse,Site of Interest,Golden Gate Bridge,San Francisco,,,,   -122.47568867700,     37.80779088270,"Ally Gregg-Zellars, 1/3/12",0,338,GoldenGa338.html
-122.474836711644755,37.99416224975996,Golden Gate Bridge Pavilion,Visitor Center,Golden Gate Bridge,San Francisco,,,,   -122.47483671200,     37.80785173810,"Ally Gregg-Zellars, 1/3/12",0,339,GoldenGa339.html
-122.470712082596407,37.994479540743129,Warming Hut,Bike Rack,Crissy Field,San Francisco,,,,   -122.47071208300,     37.80816851080,"added by M. Norelli, test data",0,340,WarmingH340.html
-122.470569174927292,37.994667412017186,Warming Hut,Cafe,Crissy Field,San Francisco,,,,   -122.47056917500,     37.80835607520,from O:\gis_projects\_Parkwide\Website\Web_Team\Park_locations\NAD83_UTM10\GGNRABuildings_pts_201111.shp,0,341,WarmingH341.html
-122.420892039735662,37.994760388306283,Restroom,Restroom,Fort Mason,San Francisco,,,,   -122.42089204000,     37.80844889960,"M. Norelli, 2/14/2012",0,342,Restroom342.html
-122.472969863867931,37.994792635807883,Battery East Vista,Overlook,Fort Point,San Francisco,,,,   -122.47296986400,     37.80848109440,"M. Norelli, 2/16/2012",0,343,BatteryE343.html
-122.475354829061999,37.994992218282583,Battery Landcaster Overlook,Overlook,Fort Point,San Francisco,,,,   -122.47535482900,     37.80868035090,"M. Norelli, 2/16/2012",0,344,BatteryL344.html
-122.421272754234096,37.995332393858433,San Francisco Maritime National Historic Park - Hyde Street Pier,Site of Interest,Fort Mason,San Francisco,,,,   -122.42127275400,     37.80901997090,"M. Norelli, 2/14/2012",0,345,SanFranc345.html
-122.474854000211792,37.995371486483727,"Ft Point, Marine Dr parking lot",Meeting Place,Fort Point,San Francisco,,,,   -122.47485400000,     37.80905899970,Presidio and San Francisco Restoration sites,14,346,"FtPoint,346.html"
-122.475614201633931,37.995615895103953,"Parking Lot, Marine Drive",Parking Lot,Fort Point,San Francisco,,,,   -122.47561420200,     37.80930300910,from O:\gis_projects\_Parkwide\park_locations_2011\NAD83_UTM10\GGNRAParking_pts_201111.shp,0,347,ParkingL347.html
-122.469808350275017,37.995616776079714,Torpedo Wharf,Site of Interest,Crissy Field,San Francisco,,,,   -122.46980835000,     37.80930388870,"M. Norelli, 2/16/2012",0,348,TorpedoW348.html
-122.469581999909252,37.995689005280362,Crabbing at the Torpedo Wharf,Site of Interest,Crissy Field,San Francisco,,,,   -122.46958200000,     37.80937599990,2011 Junior Rangers,183,349,Crabbing349.html
-122.475959999953886,37.995738085897116,Fort Point Meeting Location,Meeting Place,Fort Point,San Francisco,,,,   -122.47596000000,     37.80942500040,All Maria and Galena sites,85,350,FortPoin350.html
-122.476446930681163,37.996090647320365,Restroom,Restroom,Fort Point,San Francisco,,,,   -122.47644693100,     37.80977698600,from O:\gis_projects\_Parkwide\Website\Web_Team\Park_locations\NAD83_UTM10\GGNRABuildings_pts_201111.shp,0,351,Restroom351.html
-122.426419018522765,37.996169136124479,Municipal Pier,Site of Interest,Fort Mason,San Francisco,,,,   -122.42641901900,     37.80985534660,"M. Norelli, 2/16/2012",0,352,Municipa352.html
-122.476881895882627,37.996737187012428,Restroom,Restroom,Fort Point,San Francisco,,,,   -122.47688189600,     37.81042246990,"M. Norelli, 2/16/2012",0,353,Restroom353.html
-122.476571708917106,37.996901357427554,Parking,Parking Lot,Fort Point,San Francisco,,,,   -122.47657170900,     37.81058637230,from O:\gis_projects\_Parkwide\park_locations_2011\NAD83_UTM10\GGNRAParking_pts_201111.shp,0,354,Parking354.html
-122.476900000134776,37.996915007142761,Fort Point,Park,Fort Point,San Francisco,,http://www.parksconservancy.org/visit/park-sites/fort-point.html,"Long Avenue & Marine Drive, Building 999, Presidio of San Francisco, CA 94129",   -122.47690000000,     37.81059999970,"Harvested from the GGNPC website, 10/14/2011",9999,355,FortPoin355.html
-122.476959000157578,37.996980113752578,Fort Point,Building,Fort Point,San Francisco,,,,   -122.47695900000,     37.81066500000,2011 Junior Rangers,184,356,FortPoin356.html
-122.529400000209719,38.001923182358539,Point Bonita,Park,Point Bonita,Marin,,http://www.parksconservancy.org/visit/park-sites/point-bonita.html,"Field Road, Building PB-0001, Sausalito, CA 94965",   -122.52940000000,     37.81560000000,"Harvested from the GGNPC website, 10/14/2011",9999,357,PointBon357.html
-122.528884999842759,38.002275757699252,Point Bonita Lighthouse,Site of Interest,Point Bonita,Marin,,,,   -122.52888500000,     37.81595200010,2011 Junior Rangers,193,358,PointBon358.html
-122.53150200001717,38.008339647207883,Battery Mendell,Building,Marin Headlands,Marin,,,,   -122.53150200000,     37.82200599960,2011 Junior Rangers,194,359,BatteryM359.html
-122.527897375163633,38.008524522761995,"Parking Lot, Park Service Housing",Parking Lot,Marin Headlands,Marin,,,,   -122.52789737500,     37.82219057370,from O:\gis_projects\_Parkwide\park_locations_2011\NAD83_UTM10\GGNRAParking_pts_201111.shp,0,360,ParkingL360.html
-122.529423710835431,38.009232581010174,"Parking Lot, YMCA",Parking Lot,Marin Headlands,Marin,,,,   -122.52942371100,     37.82289747770,from O:\gis_projects\_Parkwide\park_locations_2011\NAD83_UTM10\GGNRAParking_pts_201111.shp,0,361,ParkingL361.html
-122.526562303707152,38.010993348457674,Bicentennial Campground,Campground,Marin Headlands,Marin,,,,   -122.52656230400,     37.82465537530,from O:\gis_libraries\data_library\infrastructure\campgrounds.shp,0,362,Bicenten362.html
-122.530281000367694,38.011327518131253,Battery Wallace,Restoration Site,Marin Headlands,Marin,,,,   -122.53028100000,     37.82498900040,HRT work locations,120,363,BatteryW363.html
-122.421544848615696,38.011531593897381,Fog Signal Building,Site of Interest,Alcatraz,San Francisco,,,,   -122.42154484900,     37.82519274370,"Monica Stafford, 2/15/2012",0,364,FogSigna364.html
-122.530487374992177,38.011802584830818,"Parking Lot, Battery Alexander",Parking Lot,Marin Headlands,Marin,,,,   -122.53048737500,     37.82546329300,from O:\gis_projects\_Parkwide\park_locations_2011\NAD83_UTM10\GGNRAParking_pts_201111.shp,0,365,ParkingL365.html
-122.421506777615562,38.012213230596537,Parade Ground,Site of Interest,Alcatraz,San Francisco,,,,   -122.42150677800,     37.82587326960,"Kat McAllister, 2/15/2012",0,366,ParadeGr366.html
-122.422561826267099,38.012521446623943,Alcatraz Historic Garden - Cellhouse Slope,Site of Interest,Alcatraz,San Francisco,,,,   -122.42256182600,     37.82618098350,"M. Norelli, 2/14/2012, http://www.alcatrazgardens.org/virtual_tour.php",0,367,Alcatraz367.html
-122.525815851120555,38.012550509703715,"Parking Lot, Upper Fishermans",Parking Lot,Marin Headlands,Marin,,,,   -122.52581585100,     37.82620999920,from O:\gis_projects\_Parkwide\park_locations_2011\NAD83_UTM10\GGNRAParking_pts_201111.shp,0,368,ParkingL368.html
-122.421906998409128,38.012681607035496,Alcatraz Historic Garden - Warden's Garden,Site of Interest,Alcatraz,San Francisco,,,,   -122.42190699800,     37.82634088290,"M. Norelli, 2/14/2012, http://www.alcatrazgardens.org/virtual_tour.php",0,369,Alcatraz369.html
-122.422099858021866,38.01268394098156,Warden's House,Site of Interest,Alcatraz,San Francisco,,,,   -122.42209985800,     37.82634321310,"Kat McAllister, 2/15/2012",0,370,WardensH370.html
-122.422229297443977,38.012716173939204,Restroom,Restroom,Alcatraz,San Francisco,,,,   -122.42222929700,     37.82637539350,from O:\gis_projects\_Parkwide\Website\Web_Team\Park_locations\NAD83_UTM10\GGNRABuildings_pts_201111.shp,0,371,Restroom371.html
-122.4232224349673,38.012762412374727,Alcatraz Historic Garden - West Lawn,Site of Interest,Alcatraz,San Francisco,,,,   -122.42322243500,     37.82642155660,"M. Norelli, 2/14/2012, http://www.alcatrazgardens.org/virtual_tour.php",0,372,Alcatraz372.html
-122.423012199553227,38.013004850903428,Alcatraz,Park,Alcatraz,San Francisco,,http://www.parksconservancy.org/visit/alcatraz/,Alcatraz Island,   -122.42301220000,     37.82666360010,"Harvested from the GGNPC website, 10/14/2011",190,373,Alcatraz373.html
-122.422257254668423,38.01305722191168,Alcatraz Historic Garden - Officer's Row,Site of Interest,Alcatraz,San Francisco,,,,   -122.42225725500,     37.82671588580,"M. Norelli, 2/14/2012, http://www.alcatrazgardens.org/virtual_tour.php",0,374,Alcatraz374.html
-122.421413053869216,38.013058869455875,Alcatraz Ranger Office,Visitor Center,Alcatraz,San Francisco,,,,   -122.42141305400,     37.82671753070,"Kat McAllister, 2/15/2012",0,375,Alcatraz375.html
-122.421011254765403,38.013115921867055,Dock,Site of Interest,Alcatraz,San Francisco,,,,   -122.42101125500,     37.82677449020,"Kat McAllister, 2/15/2012",0,376,Dock376.html
-122.527502772101101,38.013700912274984,NIKE Missile Site,Site of Interest,Marin Headlands,Marin,,,,   -122.52750277200,     37.82735852750,"Mike Hsu, 2/14/2012",0,377,NIKEMiss377.html
-122.422936832768443,38.013221638534567,Alcatraz Cellhouse Museum Tour,Site of Interest,Alcatraz,San Francisco,,,,   -122.42293683300,     37.82688003460,"Mike Hsu, 2/14/2012",0,378,Alcatraz378.html
-122.424122400028523,38.013229130401541,Overlook,Overlook,Alcatraz,San Francisco,,,,   -122.42412240000,     37.82688751420,"Kat McAllister, 2/15/2012",0,379,Overlook379.html
-122.42129585152216,38.013229824910383,Restroom,Restroom,Alcatraz,San Francisco,,,,   -122.42129585200,     37.82688820760,from O:\gis_projects\_Parkwide\Website\Web_Team\Park_locations\NAD83_UTM10\GGNRABuildings_pts_201111.shp,0,380,Restroom380.html
-122.424117004096303,38.013322104497099,Alcatraz Historic Garden - West Side Prisoner Gardens,Site of Interest,Alcatraz,San Francisco,,,,   -122.42411700400,     37.82698033690,"M. Norelli, 2/14/2012, http://www.alcatrazgardens.org/virtual_tour.php",0,381,Alcatraz381.html
-122.499424550502411,38.013348851641652,Hawk Hill Restroom,Restroom,Hawk Hill,Marin,,,,   -122.49942455100,     37.82700704040,"Ally Gregg-Zellars, 1/3/12",0,382,HawkHill382.html
-122.424208796998215,38.01335216654725,Metal Detector,Site of Interest,Alcatraz,San Francisco,,,,   -122.42420879700,     37.82701034990,"Kat McAllister, 2/15/2012",0,383,MetalDet383.html
-122.423705994136185,38.01342575745074,Recreation Yard,Site of Interest,Alcatraz,San Francisco,,,,   -122.42370599400,     37.82708382100,"Kat McAllister, 2/15/2012",0,384,Recreati384.html
-122.4217961299873,38.013435786841619,Guard Tower,Site of Interest,Alcatraz,San Francisco,,,,   -122.42179613000,     37.82709383400,"Kat McAllister, 2/15/2012",0,385,GuardTow385.html
-122.4223615985088,38.013476402541286,Sally Port,Site of Interest,Alcatraz,San Francisco,,,,   -122.42236159900,     37.82713438350,"Kat McAllister, 2/15/2012",0,386,SallyPor386.html
-122.422105055204014,38.013509422783216,Alcatraz Historic Garden - Main Road,Site of Interest,Alcatraz,San Francisco,,,,   -122.42210505500,     37.82716735000,"M. Norelli, 2/14/2012, http://www.alcatrazgardens.org/virtual_tour.php",0,387,Alcatraz387.html
-122.51081002426298,38.013624778789705,"Parking Lot, Lower Fishermans",Parking Lot,Marin Headlands,Marin,,,,   -122.51081002400,     37.82728251810,from O:\gis_projects\_Parkwide\park_locations_2011\NAD83_UTM10\GGNRAParking_pts_201111.shp,0,388,ParkingL388.html
-122.422489494694304,38.013658132322703,Military Chapel,Site of Interest,Alcatraz,San Francisco,,,,   -122.42248949500,     37.82731581730,"Kat McAllister, 2/15/2012",0,389,Military389.html
-122.540107769104196,38.01914249311271,Parking Lot,Parking Lot,Marin Headlands,Marin,,,,   -122.54010776900,     37.83279124700,from O:\gis_projects\_Parkwide\park_locations_2011\NAD83_UTM10\GGNRAParking_pts_201111.shp,0,390,ParkingL390.html
-122.498986917911822,38.013766115363524,Parking Lot,Parking Lot,Hawk Hill,Marin,,,,   -122.49898691800,     37.82742362440,"Jill Harley, 2/15/2012",0,391,ParkingL391.html
-122.423420560110614,38.013833041318847,Alcatraz Historic Garden - Rose Terrace,Site of Interest,Alcatraz,San Francisco,,,,   -122.42342056000,     37.82749044130,"M. Norelli, 2/14/2012, http://www.alcatrazgardens.org/virtual_tour.php",0,392,Alcatraz392.html
-122.423807121101589,38.013911363160432,Water Tower,Site of Interest,Alcatraz,San Francisco,,,,   -122.42380712100,     37.82756863560,"Kat McAllister, 2/15/2012",0,393,WaterTow393.html
-122.498917000119292,38.013990856927748,Hawk Hill meeting location,Meeting Place,Hawk Hill,Marin,,,,   -122.49891700000,     37.82764799990,Park Stewardship Restoration Sites and Meeting Locations,167,394,HawkHill394.html
-122.423230101687707,38.014072238748255,Post Exchange/Officer's Club,Site of Interest,Alcatraz,San Francisco,,,,   -122.42323010200,     37.82772924910,"Kat McAllister, 2/15/2012",0,395,PostExch395.html
-122.490233166227455,38.014325957790021,Kirby Cove Campground,Campground,Kirby Cove,Marin,,,,   -122.49023316600,     37.82798255490,from O:\gis_libraries\data_library\infrastructure\campgrounds.shp,0,396,KirbyCov396.html
-122.497848940975672,38.014492996563284,"Parking Lot, Hill 129",Parking Lot,Hawk Hill,Marin,,,,   -122.49784894100,     37.82814932150,from O:\gis_projects\_Parkwide\park_locations_2011\NAD83_UTM10\GGNRAParking_pts_201111.shp,0,397,ParkingL397.html
-122.42549561173297,38.014520529189085,Fog Signal Building,Site of Interest,Alcatraz,San Francisco,,,,   -122.42549561200,     37.82817680930,"Kat McAllister, 2/15/2012",0,398,FogSigna398.html
-122.490557999551825,38.014988482011539,Kirby Cove,Park,Kirby Cove,Marin,,http://www.parksconservancy.org/visit/park-sites/kirby-cove.html,"Conzelman Road/Battery Spencer, Sausalito, CA 94965",   -122.49055800000,     37.82864399990,"Harvested from the GGNPC website, 10/14/2011",9999,399,KirbyCov399.html
-122.491751016795831,38.015158760898409,Kirby Cove Parking Lot,Parking Lot,Kirby Cove,Marin,,,,   -122.49175101700,     37.82881400150,from O:\gis_projects\_Parkwide\park_locations_2011\NAD83_UTM10\GGNRAParking_pts_201111.shp,0,400,KirbyCov400.html
-122.483305426803852,38.015946301002096,Battery Spencer Parking Lot,Parking Lot,Fort Baker,Marin,,,,   -122.48330542700,     37.82960025890,from O:\gis_projects\_Parkwide\park_locations_2011\NAD83_UTM10\GGNRAParking_pts_201111.shp,0,401,BatteryS401.html
-122.483398000317308,38.016073249198598,Battery Spencer,Restoration Site,Fort Baker,Marin,,,,   -122.48339800000,     37.82972700040,HRT work locations,111,402,BatteryS402.html
-122.515332052032392,38.016588568939746,Historic Balloon Hangar,Site of Interest,Marin Headlands,Marin,,,,   -122.51533205200,     37.83024148100,"Jill Harley, 2/15/2012",0,403,Historic403.html
-122.536652000089617,38.016658201722812,Rodeo Beach,Beach,Rodeo Beach,Marin,,,,   -122.53665200000,     37.83031100040,2011 Junior Rangers,195,404,RodeoBea404.html
-122.524885936836384,38.016974049822664,"Parking Lot, Marin Headlands VC",Parking Lot,Marin Headlands,Marin,,,,   -122.52488593700,     37.83062633410,from O:\gis_projects\_Parkwide\park_locations_2011\NAD83_UTM10\GGNRAParking_pts_201111.shp,0,405,ParkingL405.html
-122.524733999974018,38.016990743241024,Marin Headlands Visitor Center meeting location,Meeting Place,Marin Headlands,Marin,,,,   -122.52473400000,     37.83064300040,Park Stewardship Restoration Sites and Meeting Locations,163,406,MarinHea406.html
-122.525262753672962,38.01701376199842,Water Fountain,Water Fountain,Marin Headlands,Marin,,,,   -122.52526275400,     37.83066598160,"added by M. Norelli, test data",0,407,WaterFou407.html
-122.525344430101157,38.017017746187406,Restroom,Restroom,Marin Headlands,Marin,,,,   -122.52534443000,     37.83066995940,from O:\gis_projects\_Parkwide\Website\Web_Team\Park_locations\NAD83_UTM10\GGNRABuildings_pts_201111.shp,0,408,Restroom408.html
-122.524399999859952,38.017147999346946,Marin Headlands,Park,Marin Headlands,Marin,,http://www.parksconservancy.org/visit/park-sites/marin-headlands.html,"Fort Barry, Building 948, Sausalito, CA 94965",   -122.52440000000,     37.83080000040,"Harvested from the GGNPC website, 10/14/2011",9999,409,MarinHea409.html
-122.537316543323655,38.017158256628896,Rodeo Beach,Park,Rodeo Beach,Marin,,http://www.parksconservancy.org/visit/park-sites/rodeo-beach.html,,   -122.53731654300,     37.83081024100,"Harvested from the GGNPC website, 10/14/2011",9999,410,RodeoBea410.html
-122.524478367682406,38.017185619889723,Marin Headlands Visitor Center,Visitor Center,Marin Headlands,Marin,,,,   -122.52447836800,     37.83083755970,"added by M. Norelli, test data",0,411,MarinHea411.html
-122.515490049426035,38.017477623173569,Presidio Riding Club,Building,Marin Headlands,Marin,,http://marinhorsecouncil.org/resources.htm,,   -122.51549004900,     37.83112908750,"Updated Sara Solomon, 4/17/2013",0,412,Presidio412.html
-122.536471485470528,38.017684569468074,Fort Cronkhite Footbridge,Access,Rodeo Lagoon/Valley,Marin,,,,   -122.53647148500,     37.83133569690,"Jill Harley, 2/15/2012",0,413,FortCron413.html
-122.509110226455618,38.017702944656307,Rifle Range,Site of Interest,Marin Headlands,Marin,,,,   -122.50911022600,     37.83135404220,"Jill Harley, 2/15/2012",0,414,RifleRan414.html
-122.535295192019348,38.017824423213384,Parking Lot,Parking Lot,Rodeo Lagoon/Valley,Marin,,,,   -122.53529519200,     37.83147532290,"Jill Harley, 2/15/2012",0,415,ParkingL415.html
-122.537031659683137,38.018249984575235,Streetside Parking,Parking Lot,Fort Cronkhite,Marin,,,,   -122.53703166000,     37.83190019140,"Jill Harley, 2/15/2012",0,416,Streetsi416.html
-122.483688000200928,38.018357969305001,Conzelman Rd,Meeting Place,Fort Baker,Marin,,,,   -122.48368800000,     37.83200800040,All Maria and Galena sites,64,417,Conzelma417.html
-122.512366999836985,38.018400037030304,Rifle Range - Rodeo Valley,Restoration Site,Marin Headlands,Marin,,,,   -122.51236700000,     37.83204999960,HRT work locations,117,418,RifleRan418.html
-122.535331991378129,38.018467247564317,"Parking Lot, NatureBridge West",Parking Lot,Fort Cronkhite,Marin,,,,   -122.53533199100,     37.83211710070,from O:\gis_projects\_Parkwide\park_locations_2011\NAD83_UTM10\GGNRAParking_pts_201111.shp,0,419,ParkingL419.html
-122.536899999834986,38.018550282249052,Fort Cronkhite,Park,Fort Cronkhite,Marin,,http://www.parksconservancy.org/visit/park-sites/fort-cronkhite.html,"Bunker Road/Mitchell Road, Sausalito, CA 94965",   -122.53690000000,     37.83220000020,"Harvested from the GGNPC website, 10/14/2011",9999,420,FortCron420.html
-122.512356243945348,38.01857097606316,Parking Lot,Parking Lot,Marin Headlands,Marin,,,,   -122.51235624400,     37.83222066040,"Jill Harley, 2/15/2012",0,421,ParkingL421.html
-122.534470700762043,38.018616504615821,"Parking Lot, NatureBridge Central",Parking Lot,Fort Cronkhite,Marin,,,,   -122.53447070100,     37.83226611480,from O:\gis_projects\_Parkwide\park_locations_2011\NAD83_UTM10\GGNRAParking_pts_201111.shp,0,422,ParkingL422.html
-122.478097476217314,38.018725489211754,Restroom,Restroom,Fort Baker,Marin,,,,   -122.47809747600,     37.83237492200,"M. Norelli, 2/16/2012",0,423,Restroom423.html
-122.532698993163905,38.018784798024583,"Parking Lot, NatureBridge East",Parking Lot,Fort Cronkhite,Marin,,,,   -122.53269899300,     37.83243413420,from O:\gis_projects\_Parkwide\park_locations_2011\NAD83_UTM10\GGNRAParking_pts_201111.shp,0,424,ParkingL424.html
-122.479577019263871,38.018813774587407,Vista Point,Overlook,Fort Baker,Marin,,,,   -122.47957701900,     37.83246306360,"M. Norelli, 2/16/2012",0,425,VistaPoi425.html
-122.48190511942552,38.018836323123693,"Parking Lot, Dillingham Commuter Lot",Parking Lot,Fort Baker,Marin,,,,   -122.48190511900,     37.83248557540,from O:\gis_projects\_Parkwide\park_locations_2011\NAD83_UTM10\GGNRAParking_pts_201111.shp,0,426,ParkingL426.html
-122.538843504923634,38.018859980530387,"""Surfer"" Parking Lot, Rodeo Beach",Parking Lot,Fort Cronkhite,Marin,Look for the gate located approximately 3/4 of a mile down Muir woods Rd.,"http://cbk0.google.com/cbk?output=thumbnail&amp;w=90&amp;h=68&amp;ll=37.893262,-122.564560&amp;thumb=0",,   -122.53884350500,     37.83250919430,from O:\gis_projects\_Parkwide\park_locations_2011\NAD83_UTM10\GGNRAParking_pts_201111.shp,63,427,SurferPa427.html
-122.542900000434543,38.018866797697264,Scotty's Bluff,Site of Interest,Rodeo Lagoon/Valley,Marin,,,,   -122.54290000000,     37.83251600040,2011 Junior Rangers,196,428,ScottysB428.html
-122.473471312351052,38.018898834237774,Parking,Parking Lot,Fort Baker,Marin,,,,   -122.47347131200,     37.83254798480,"from M. Norelli, 2/15/2012",0,429,Parking429.html
-122.539340322797486,38.01890935364505,Restroom,Restroom,Fort Cronkhite,Marin,,,,   -122.53934032300,     37.83255848710,from O:\gis_projects\_Parkwide\Website\Web_Team\Park_locations\NAD83_UTM10\GGNRABuildings_pts_201111.shp,0,430,Restroom430.html
-122.526627307604045,38.018990050775436,Parking Lot,Parking Lot,Rodeo Lagoon/Valley,Marin,,,,   -122.52662730800,     37.83263905290,"Jill Harley, 2/15/2012",0,431,ParkingL431.html
-122.526825000173446,38.019084150734777,Building T1111 - Miwok Trail,Restoration Site,Rodeo Lagoon/Valley,Marin,,,,   -122.52682500000,     37.83273299960,HRT work locations,113,432,Building432.html
-122.526701886582586,38.01933038753981,Portable Restroom,Restroom,Rodeo Lagoon/Valley,Marin,,,,   -122.52670188700,     37.83297883560,"Jill Harley, 2/15/2012",0,433,Portable433.html
-122.534364457553508,38.019379230985734,Park Intern Housing,Building,Fort Cronkhite,Marin,,,,   -122.53436445800,     37.83302759950,"Monica Stafford, 2/15/2012",0,434,ParkInte434.html
-122.534104486932392,38.019427377220836,Marin Headlands Native Plant Nursery,Building,Fort Cronkhite,Marin,,,,   -122.53410448700,     37.83307566740,"added by M. Norelli, test data",0,435,MarinHea435.html
-122.480249060145866,38.019575437992842,Parking,Parking Lot,Fort Baker,Marin,,,,   -122.48024906000,     37.83322348720,from O:\gis_projects\_Parkwide\park_locations_2011\NAD83_UTM10\GGNRAParking_pts_201111.shp,0,436,Parking436.html
-122.476740690630166,38.020383762091789,Parking,Parking Lot,Fort Baker,Marin,,,,   -122.47674069100,     37.83403049560,"from M. Norelli, 2/15/2012",0,437,Parking437.html
-122.477918548002449,38.020390072112598,US Coast Guard Station,Building,Fort Baker,Marin,,,,   -122.47791854800,     37.83403679540,"M. Norelli, 2/16/2012",0,438,USCoastG438.html
-122.474262648302485,38.020414323130389,Travis Sailing Center (Presidio Yacht Club),Building,Fort Baker,Marin,,http://presidioyachtclub.org/lessonsnew.htm,,   -122.47426264800,     37.83406100690,"Updated Sara Solomon, 4/17/2013",0,439,Presidio439.html
-122.480302250548277,38.020945879968046,Parking Lot,Parking Lot,Fort Baker,Marin,,,,   -122.48030225100,     37.83459169860,from O:\gis_projects\_Parkwide\park_locations_2011\NAD83_UTM10\GGNRAParking_pts_201111.shp,0,440,ParkingL440.html
-122.533620611202053,38.020962749925864,"Parking Lot, Fort Cronkhite Maintenance",Parking Lot,Fort Cronkhite,Marin,,,,   -122.53362061100,     37.83460854120,from O:\gis_projects\_Parkwide\park_locations_2011\NAD83_UTM10\GGNRAParking_pts_201111.shp,0,441,ParkingL441.html
-122.476230157195872,38.021288485666062,Parking,Parking Lot,Fort Baker,Marin,,,,   -122.47623015700,     37.83493374680,"from M. Norelli, 2/15/2012",0,442,Parking442.html
-122.531820609133646,38.021342732916985,"Parking Lot, Marine Mammal Center",Parking Lot,Fort Cronkhite,Marin,,,,   -122.53182060900,     37.83498790580,from O:\gis_projects\_Parkwide\park_locations_2011\NAD83_UTM10\GGNRAParking_pts_201111.shp,0,443,ParkingL443.html
-122.475208244065044,38.021530313891866,Restroom,Restroom,Fort Baker,Marin,,,,   -122.47520824400,     37.83517518150,from O:\gis_projects\_Parkwide\Website\Web_Team\Park_locations\NAD83_UTM10\GGNRABuildings_pts_201111.shp,0,444,Restroom444.html
-122.530953720237818,38.021605351323942,The Marine Mammal Center,Site of Interest,Fort Cronkhite,Marin,,http://www.tmmc.org/,,   -122.53095372000,     37.83525009680,"Updated Sara Solomon, 4/17/2013",0,445,MarineMa445.html
-122.521935000399807,38.022242291177307,Rodeo Lagoon/Valley,Park,Rodeo Lagoon/Valley,Marin,,http://www.parksconservancy.org/visit/park-sites/rodeo-lagoon-valley.html,,   -122.52193500000,     37.83588600020,"Harvested from the GGNPC website, 10/14/2011",9999,446,RodeoLag446.html
-122.542981670567499,38.022371637989821,"Parking Lot, Townsley Reserve Parking",Parking Lot,Rodeo Lagoon/Valley,Marin,,,,   -122.54298167100,     37.83601513660,from O:\gis_projects\_Parkwide\park_locations_2011\NAD83_UTM10\GGNRAParking_pts_201111.shp,0,447,ParkingL447.html
-122.474551287511702,38.022458726145501,Parking,Parking Lot,Fort Baker,Marin,,,,   -122.47455128800,     37.83610208300,"from M. Norelli, 2/15/2012",0,448,Parking448.html
-122.478921999850229,38.022693024623017,Fort Baker,Park,Fort Baker,Marin,,http://www.parksconservancy.org/visit/park-sites/fort-baker.html,"Bunker Road, Sausalito, CA 94965",   -122.47892200000,     37.83633600030,"Harvested from the GGNPC website, 10/14/2011",9999,449,FortBake449.html
-122.543478154792879,38.022877819404258,Battery Townsley,Site of Interest,Rodeo Lagoon/Valley,Marin,,,,   -122.54347815500,     37.83652049440,"Mike Hsu, 2/14/2012",0,450,BatteryT450.html
-122.502418999736832,38.022905369993438,Capehart Quarry #1,Restoration Site,Marin Headlands,Marin,,,,   -122.50241900000,     37.83654800020,HRT work locations,102,451,Capehart451.html
-122.479530000009291,38.023260948680942,Fort Baker Drop in Location,Meeting Place,Fort Baker,Marin,,,,   -122.47953000000,     37.83690300040,All Maria and Galena sites,54,452,FortBake452.html
-122.500612286927364,38.02348730847558,Park Intern Housing,Site of Interest,Marin Headlands,Marin,,,,   -122.50061228700,     37.83712899190,"Monica Stafford, 2/15/2012",0,453,ParkInte453.html
-122.479418195393208,38.023934331450626,Cavallo Point - The Lodge at Golden Gate,Cafe,Fort Baker,Marin,,http://www.cavallopoint.com/,,   -122.47941819500,     37.83757528770,"Updated Sara Solomon, 4/17/2013",0,454,CavalloP454.html
-122.479381895158241,38.024069017180196,Restroom,Restroom,Fort Baker,Marin,,,,   -122.47938189500,     37.83770975430,"M. Norelli, 2/14/2012",0,455,Restroom455.html
-122.49871799993555,38.024246551557816,Capehart Quarry #2,Restoration Site,Marin Headlands,Marin,,,,   -122.49871800000,     37.83788699990,HRT work locations,118,456,Capehart456.html
-122.481703971660778,38.024291656681719,Institute at the Golden Gate,Building,Fort Baker,Marin,,,,   -122.48170397200,     37.83793203160,"Mike Hsu, 2/14/2012",0,457,Institut457.html
-122.47864689723643,38.024742406131864,Mission Blue Chapel,Site of Interest,Fort Baker,Marin,,,,   -122.47864689700,     37.83838204790,"M. Norelli, 2/14/2012",0,458,MissionB458.html
-122.485641000331668,38.025533644954258,Wolf Back Ridge meeting location,Meeting Place,Fort Baker,Marin,,,,   -122.48564100000,     37.83917199980,Park Stewardship Restoration Sites and Meeting Locations,136,459,WolfBack459.html
-122.485610999847623,38.025575713511849,Wolfback Ridge Parking,Parking Lot,Fort Baker,Marin,,,,   -122.48561100000,     37.83921399990,All Maria and Galena sites,60,460,Wolfback460.html
-122.532528405261516,38.028475074070535,Helipad and Heliparking,Parking Lot,Rodeo Lagoon/Valley,Marin,,,,   -122.53252840500,     37.84210864600,from O:\gis_projects\_Parkwide\park_locations_2011\NAD83_UTM10\GGNRAParking_pts_201111.shp,0,461,Helipada461.html
-122.482390999744709,38.02921763553141,WOLFBACK RIDGE,Restoration Site,Fort Baker,Marin,,,,   -122.48239100000,     37.84285000030,Park Stewardship Restoration Sites and Meeting Locations,151,462,WOLFBACK462.html
-122.477246052063478,38.029930488038488,Marin Water Treatment Plant,Site of Interest,Fort Baker,Marin,,,,   -122.47724605200,     37.84356169410,"M. Norelli, 2/16/2012",0,463,MarinWat463.html
-122.513882999600568,38.032164424563234,Gerbode Valley,Park,Gerbode Valley,Marin,,http://www.parksconservancy.org/visit/park-sites/gerbode-valley.html,"Bunker Road, Sausalito, CA 94965",   -122.51388300000,     37.84579200020,"Harvested from the GGNPC website, 10/14/2011",9999,464,GerbodeV464.html
-122.537783874226207,38.037676218095193,Tennessee Valley Native Plant Nursery,Building,Tennessee Valley,Marin,,,,   -122.53778387400,     37.85129484120,O:\gis_projects\_Parkwide\nurseries\data\Nurseries_lonlat.shp,0,465,Tennesse465.html
-122.53783639103645,38.037940464146182,NPS Horse Stable,Building,Tennessee Valley,Marin,,,,   -122.53783639100,     37.85155865820,"Jill Harley, 2/15/2012",0,466,NPSHorse466.html
-122.562023799558531,38.038421169586599,Pirate's Cove Beach,Beach,Tennessee Valley,Marin,,,,   -122.56202380000,     37.85203858320,"Ally Gregg-Zellars, 1/3/12",0,467,PiratesC467.html
-122.520727520258731,38.040583626394678,Portable Restroom,Restroom,Gerbode Valley,Marin,,,,   -122.52072752000,     37.85419752990,"Jill Harley, 2/15/2012",0,468,Portable468.html
-122.520486607171037,38.040625588515816,Hawk Camp Campground,Campground,Gerbode Valley,Marin,,,,   -122.52048660700,     37.85423942390,from O:\gis_libraries\data_library\infrastructure\campgrounds.shp,0,469,HawkCamp469.html
-122.533871656051943,38.046190741034501,Miwok Stables,Site of Interest,Tennessee Valley,Marin,,http://www.miwokstablescenter.org/,,   -122.53387165600,     37.85979554790,"Updated Sara Solomon, 4/17/2013",0,470,MiwokSta470.html
-122.576691000189385,38.046274328276802,Muir Beach,Beach,Muir Beach,Marin,,,,   -122.57669100000,     37.85987899960,2011 Junior Rangers,192,471,MuirBeac471.html
-122.534643393977333,38.046584163328106,"Parking Lot, Miwok Stable Parking Area",Parking Lot,Tennessee Valley,Marin,,,,   -122.53464339400,     37.86018833220,from O:\gis_projects\_Parkwide\park_locations_2011\NAD83_UTM10\GGNRAParking_pts_201111.shp,0,472,ParkingL472.html
-122.574760000173725,38.046725059261625,MUIR BEACH,Restoration Site,Muir Beach,Marin,,,,   -122.57476000000,     37.86032899970,Park Stewardship Restoration Sites and Meeting Locations,147,473,MUIRBEAC473.html
-122.536209954525631,38.046768254495824,Restroom,Restroom,Tennessee Valley,Marin,,,,   -122.53620995500,     37.86037212490,"Monica Stafford, 2/15/2012",0,474,Restroom474.html
-122.536160999930047,38.04688231430535,Tennessee Valley,Park,Tennessee Valley,Marin,,http://www.parksconservancy.org/visit/park-sites/tennessee-valley.html,"Tennessee Valley Road, Sausalito, CA 94965",   -122.53616100000,     37.86048599970,"Harvested from the GGNPC website, 10/14/2011",9999,475,Tennesse475.html
-122.535906875801459,38.047037194880211,"Parking Lot, Tennessee Valley",Parking Lot,Tennessee Valley,Marin,,,,   -122.53590687600,     37.86064062920,from O:\gis_projects\_Parkwide\park_locations_2011\NAD83_UTM10\GGNRAParking_pts_201111.shp,0,476,ParkingL476.html
-122.535950000092285,38.047140733541418,Tennessee Valley Meeting Location,Meeting Place,Tennessee Valley,Marin,Volunteers can park near the tennis courts  Look for the steep gravel road leading to Eastwood Park.  Your project leaders will meet you there,"http://cbk0.google.com/cbk?output=thumbnail&amp;w=90&amp;h=68&amp;ll=37.882511,-122.545812&amp;thumb=0",,   -122.53595000000,     37.86074399990,http://maps.google.com/maps/ms?msid=203285277320039340250.0004a792529e0d074ef20&msa=0,0,477,Tennesse477.html
-122.535828043029568,38.047157102563631,Tennessee Valley,Trailhead,Tennessee Valley,Marin,,,,   -122.53582804300,     37.86076034240,from Trails_pts_100ft_20111121,0,478,Tennesse478.html
-122.57535734066856,38.047185857347095,Marin Volunteer Stewardship Program,Meeting Place,Muir Beach,Marin,picnic tables at Muir Beach parking area,,,   -122.57535734100,     37.86078905060,"Ally Gregg-Zellars, 1/3/12",0,479,MarinVol479.html
-122.546297805499208,38.047261571730424,Haypress Campground,Campground,Tennessee Valley,Marin,,,,   -122.54629780500,     37.86086464220,from O:\gis_libraries\data_library\infrastructure\campgrounds.shp,0,480,Haypress480.html
-122.574745022864306,38.047335935839278,Muir Beach Restrooms,Restroom,Muir Beach,Marin,,,,   -122.57474502300,     37.86093888570,"Ally Gregg-Zellars, 1/3/12",0,481,MuirBeac481.html
-122.575471999732798,38.047408166893632,Muir Beach,Park,Muir Beach,Marin,,http://www.parksconservancy.org/visit/park-sites/muir-beach.html,"Highway 1, Mill Valley, CA 94965",   -122.57547200000,     37.86101099970,"Harvested from the GGNPC website, 10/14/2011",9999,482,MuirBeac482.html
-122.575673568380324,38.047514639394954,Muir Beach parking lot,Parking Lot,Muir Beach,Marin,,,,   -122.57567356800,     37.86111729950,Park Stewardship Restoration Sites and Meeting Locations,137,483,MuirBeac483.html
-122.578529000412956,38.048329661084956,Muir Beach Community Center,Meeting Place,Muir Beach,Marin,,,,   -122.57852900000,     37.86193099980,Park Stewardship Restoration Sites and Meeting Locations,179,484,MuirBeac484.html
-122.585600876878786,38.049259817005122,Muir Beach Overlook Trail,Trailhead,Muir Beach,Marin,,,,   -122.58560087700,     37.86285964790,from Trails_pts_100ft_20111121,0,485,MuirBeac485.html
-122.585585577612136,38.049479703342847,"Parking Lot, Muir Beach Overlook",Parking Lot,Muir Beach,Marin,,,,   -122.58558557800,     37.86307917780,from O:\gis_projects\_Parkwide\park_locations_2011\NAD83_UTM10\GGNRAParking_pts_201111.shp,0,486,ParkingL486.html
-122.58540044047777,38.04956768724044,Restroom,Restroom,Muir Beach,Marin,,,,   -122.58540044000,     37.86316701900,from O:\gis_projects\_Parkwide\Website\Web_Team\Park_locations\NAD83_UTM10\GGNRABuildings_pts_201111.shp,0,487,Restroom487.html
-122.585625000293362,38.049574679111437,Muir Beach Overlook,Meeting Place,Muir Beach,Marin,,,,   -122.58562500000,     37.86317399960,All Maria and Galena sites,67,488,MuirBeac488.html
-122.517771999977683,38.050719535242528,Oakwood Valley,Park,Oakwood Valley,Marin,,http://www.parksconservancy.org/visit/park-sites/oakwood-valley.html,,   -122.51777200000,     37.86431700010,"Harvested from the GGNPC website, 10/14/2011",9999,489,OakwoodV489.html
-122.574938061442253,38.051037623845048,Pelican Inn,Cafe,Muir Beach,Marin,,,"10 Pacific Way  Muir Beach, CA 94965-9729",   -122.57493806100,     37.86463457320,"Ally Gregg-Zellars, 1/3/12",0,490,PelicanI490.html
-122.574473724382656,38.051319389299707,Dias Ridge Trail,Trailhead,Muir Beach,Marin,,,,   -122.57447372400,     37.86491588210,from Trails_pts_100ft_20111121,0,491,DiasRidg491.html
-122.571777000208215,38.051772241108793,DIAS RIDGE,Restoration Site,Dias Ridge,Marin,,,,   -122.57177700000,     37.86536800000,Park Stewardship Restoration Sites and Meeting Locations,146,492,DIASRIDG492.html
-122.574326928045082,38.051851042391988,Golden Gate Dairy/stables,Site of Interest,Muir Beach,Marin,,,,   -122.57432692800,     37.86544667360,"Jill Harley, 2/15/2012",0,493,GoldenGa493.html
-122.563930763393827,38.052355854831404,"Green Gulch Farms, Zen Center",Site of Interest,Muir Beach,Marin,,,,   -122.56393076300,     37.86595066810,"Ally Gregg-Zellars, 1/3/12",0,494,GreenGul494.html
-122.510075856415511,38.053291381260053,Orchard Fire Road Trailhead,Trailhead,Oakwood Valley,Marin,coming soon,,,   -122.51007585600,     37.86688467880,"Ally Gregg-Zellars, 1/3/12",0,495,OrchardF495.html
-122.510430477983988,38.05338635604555,Orchard Fire Road,Parking Lot,Oakwood Valley,Marin,,,,   -122.51043047800,     37.86697949970,"Ally Gregg-Zellars, 1/3/12",0,496,OrchardF496.html
-122.52764100003192,38.054955398009213,OAKWOOD VALLEY,Restoration Site,Oakwood Valley,Marin,,,,   -122.52764100000,     37.86854600000,Park Stewardship Restoration Sites and Meeting Locations,149,497,OAKWOODV497.html
-122.527770999731743,38.055821801564854,Oakwood Valley Trail,Meeting Place,Oakwood Valley,Marin,,,,   -122.52777100000,     37.86941100030,All Maria and Galena sites,57,498,OakwoodV498.html
-122.520157000245206,38.055867875605358,ALTA AVE.,Restoration Site,Oakwood Valley,Marin,,,,   -122.52015700000,     37.86945699970,Park Stewardship Restoration Sites and Meeting Locations,150,499,ALTAAVE499.html
-122.589580276208579,38.056151440510796,Coastal Trail,Trailhead,Muir Beach,Marin,,,,   -122.58958027600,     37.86974010540,from Trails_pts_100ft_20111121,0,500,CoastalT500.html
-122.514806048460201,38.056380617157117,Pacheco Fire Road,Trailhead,Oakwood Valley,Marin,,,,   -122.51480604800,     37.86996891090,from Trails_pts_100ft_20111121,0,501,PachecoF501.html
-122.527064162281107,38.05651318235676,Oakwood Valley Trail,Trailhead,Oakwood Valley,Marin,,,,   -122.52706416200,     37.87010126150,from Trails_pts_100ft_20111121,0,502,OakwoodV502.html
-122.536082016072015,38.058847184778664,County View Road,Trailhead,Tennessee Valley,Marin,,,,   -122.53608201600,     37.87243148490,from Trails_pts_100ft_20111121,0,503,CountyVi503.html
-122.535903999769616,38.058966893968616,Coyote Ridge Meeting Location,Meeting Place,Tennessee Valley,Marin,,,,   -122.53590400000,     37.87255100030,HRT work locations,103,504,CoyoteRi504.html
-122.596162757804876,38.060072063793619,Slide Ranch,Site of Interest,Muir Beach,Marin,,http://www.slideranch.org/,,   -122.59616275800,     37.87365438120,"Updated Sara Solomon, 4/17/2013",0,505,SlideRan505.html
-122.596950670936536,38.060725705745334,Parking,Parking Lot,Muir Beach,Marin,,,,   -122.59695067100,     37.87430696530,"M. Norelli, 2/16/2012",0,506,Parking506.html
-122.51962414383901,38.061537695666637,Alta Avenue Fire Road,Trailhead,Oakwood Valley,Marin,,,,   -122.51962414400,     37.87511764120,from Trails_pts_100ft_20111121,0,507,AltaAven507.html
-122.519561999786319,38.06204687847827,Alta Avenue Meeting Location,Meeting Place,Oakwood Valley,Marin,,,,   -122.51956200000,     37.87562600000,All Maria and Galena sites,59,508,AltaAven508.html
-122.582604209016836,38.062499012163002,Heather Cutoff Trail,Trailhead,Mount Tamalpais State Park,Marin,,,,   -122.58260420900,     37.87607740220,from Trails_pts_100ft_20111121,0,509,HeatherC509.html
-122.5546030068232,38.06579727363431,Miwok Trail,Trailhead,Mount Tamalpais State Park,Marin,,,,   -122.55460300700,     37.87937032830,from Trails_pts_100ft_20111121,0,510,MiwokTra510.html
-122.545814999962133,38.068943031789935,Tam Fire Site,Restoration Site,Tennessee Valley,Marin,,,,   -122.54581500000,     37.88251100010,HRT work locations,108,511,TamFireS511.html
-122.626647999905117,38.069017151421562,Rocky Point,Park,Mount Tamalpais State Park,Marin,,http://www.parksconservancy.org/visit/park-sites/rocky-point.html,,   -122.62664800000,     37.88258499990,"Harvested from the GGNPC website, 10/14/2011",9999,512,RockyPoi512.html
-122.621421237300055,38.069195562244737,Rocky Point Trail,Trailhead,Mount Tamalpais State Park,Marin,,,,   -122.62142123700,     37.88276312230,from Trails_pts_100ft_20111121,0,513,RockyPoi513.html
-122.627262479679572,38.069992478786112,Rocky Point - Steep Ravine Campground,Campground,Mount Tamalpais State Park,Marin,,,,   -122.62726248000,     37.88355875070,from O:\gis_projects\_Marin\Big Lagoon\Kiosk_Map_20100401\shapefiles_update\POI.shp,0,514,RockyPoi514.html
-122.554619000366372,38.070734927851184,Homestead Vally Planting Site Meeting Location,Meeting Place,Mount Tamalpais State Park,Marin,,,,   -122.55461900000,     37.88429999980,HRT work locations,116,515,Homestea515.html
-122.55479315497999,38.07136824937681,Dias Ridge Trail,Trailhead,Mount Tamalpais State Park,Marin,,,,   -122.55479315500,     37.88493229790,from Trails_pts_100ft_20111121,0,516,DiasRidg516.html
-122.568279221109051,38.072609874862955,Redwood Creek Trail,Trailhead,Muir Woods National Monument,Marin,,,,   -122.56827922100,     37.88617191710,from Trails_pts_100ft_20111121,0,517,RedwoodC517.html
-122.568368324138746,38.072731104190893,Deer Park Fire Road,Trailhead,Muir Woods National Monument,Marin,,,,   -122.56836832400,     37.88629295060,from Trails_pts_100ft_20111121,0,518,DeerPark518.html
-122.547643431399081,38.075510882583565,Homestead Fire Road,Trailhead,Tennessee Valley,Marin,,,,   -122.54764343100,     37.88906823860,from Trails_pts_100ft_20111121,0,519,Homestea519.html
-122.554992999627032,38.07573300243692,Homestead Valley,Restoration Site,Mount Tamalpais State Park,Marin,,,,   -122.55499300000,     37.88928999970,HRT work locations,115,520,Homestea520.html
-122.554890151359274,38.075805590633642,Homestead Fire Road,Trailhead,Mount Tamalpais State Park,Marin,,,,   -122.55489015100,     37.88936247070,from Trails_pts_100ft_20111121,0,521,Homestea521.html
-122.567077062256502,38.07644800567045,Redwood Creek Native Plant Nursery,Building,Muir Woods National Monument,Marin,,,,   -122.56707706200,     37.89000384830,O:\gis_projects\_Parkwide\nurseries\data\Nurseries_lonlat.shp,0,522,RedwoodC522.html
-122.568840240684409,38.077739612904402,"Parking Lot, Muir Woods Annex",Parking Lot,Muir Woods National Monument,Marin,,,,   -122.56884024100,     37.89129337000,from O:\gis_projects\_Parkwide\park_locations_2011\NAD83_UTM10\GGNRAParking_pts_201111.shp,0,523,ParkingL523.html
-122.568976024823542,38.078274459659724,"Parking Lot, Muir Woods Old Inn",Parking Lot,Muir Woods National Monument,Marin,,,,   -122.56897602500,     37.89182735320,from O:\gis_projects\_Parkwide\park_locations_2011\NAD83_UTM10\GGNRAParking_pts_201111.shp,0,524,ParkingL524.html
-122.56901599968846,38.078300147997403,Muir Woods,Meeting Place,Muir Woods National Monument,Marin,,"http://cbk0.google.com/cbk?output=thumbnail&amp;w=90&amp;h=68&amp;ll=37.832497,-122.539304&amp;thumb=0",,   -122.56901600000,     37.89185300010,http://maps.google.com/maps/ms?msid=203285277320039340250.0004a792529e0d074ef20&msa=0,0,525,MuirWood525.html
-122.570540899143097,38.078521245328993,Muir Woods Arch,Site of Interest,Muir Woods National Monument,Marin,,,,   -122.57054089900,     37.89207374050,"added by M. Norelli, test data",0,526,MuirWood526.html
-122.624489000167088,38.078586610155178,Dipsea Trail/White Gate Meeting Location,Meeting Place,Stinson Beach,Marin,,,,   -122.62448900000,     37.89213899980,HRT work locations,110,527,DipseaTr527.html
-122.571933502928715,38.078705208151128,Restroom Lower,Restroom,Muir Woods National Monument,Marin,,,,   -122.57193350300,     37.89225740640,from O:\gis_projects\_Parkwide\Website\Web_Team\Park_locations\NAD83_UTM10\GGNRABuildings_pts_201111.shp,0,528,Restroom528.html
-122.571464786170765,38.078706670110932,"Parking Lot, Muir Woods",Parking Lot,Muir Woods National Monument,Marin,,,,   -122.57146478600,     37.89225886600,from O:\gis_projects\_Parkwide\park_locations_2011\NAD83_UTM10\GGNRAParking_pts_201111.shp,0,529,ParkingL529.html
-122.565760576189518,38.079121167658485,Dipsea Trail,Trailhead,Muir Woods National Monument,Marin,,,,   -122.56576057600,     37.89267269440,from Trails_pts_100ft_20111121,0,530,DipseaTr530.html
-122.572342823962032,38.079204974064659,Main Trail,Trailhead,Muir Woods National Monument,Marin,,,,   -122.57234282400,     37.89275636550,from Trails_pts_100ft_20111121,0,531,MainTrai531.html
-122.572464937506709,38.079296599205449,Muir Woods Visitor Center,Visitor Center,Muir Woods National Monument,Marin,,,,   -122.57246493800,     37.89284784280,from O:\gis_projects\_Parkwide\buildings_update_2011\shapefiles\GGNRABuildings_201111.shp,0,532,MuirWood532.html
-122.572500000274644,38.079549164196266,Muir Woods National Monument,Park,Muir Woods National Monument,Marin,,http://www.parksconservancy.org/visit/park-sites/muir-woods-national-monument.html,"Muir Woods Road, Building MW-020, Mill Valley, CA 94941",   -122.57250000000,     37.89310000010,"Harvested from the GGNPC website, 10/14/2011",9999,533,MuirWood533.html
-122.564560000143729,38.079710424718485,Frank's Valley Horse Camp,Restoration Site,Muir Woods National Monument,Marin,,,,   -122.56456000000,     37.89326100030,HRT work locations,105,534,FranksVa534.html
-122.556888842445957,38.079951866003633,Four Corners,Trailhead,Mount Tamalpais State Park,Marin,,,,   -122.55688884200,     37.89350205190,from Trails_pts_100ft_20111121,0,535,FourCorn535.html
-122.572868306826734,38.080023120982432,Restroom Upper,Restroom,Muir Woods National Monument,Marin,,,,   -122.57286830700,     37.89357319180,from O:\gis_projects\_Parkwide\Website\Web_Team\Park_locations\NAD83_UTM10\GGNRABuildings_pts_201111.shp,0,536,Restroom536.html
-122.557235999641577,38.080049972211633,Four Corners Meeting Location,Meeting Place,Mount Tamalpais State Park,Marin,,,,   -122.55723600000,     37.89359999970,HRT work locations,104,537,FourCorn537.html
-122.637132034615504,38.081168173668019,Parking,Parking Lot,Stinson Beach,Marin,,,,   -122.63713203500,     37.89471639650,from O:\gis_projects\_Parkwide\park_locations_2011\NAD83_UTM10\GGNRAParking_pts_201111.shp,0,538,Parking538.html
-122.638165784623098,38.081525818531375,South Restroom,Restroom,Stinson Beach,Marin,,,,   -122.63816578500,     37.89507346430,from O:\gis_projects\_Parkwide\Website\Web_Team\Park_locations\NAD83_UTM10\GGNRABuildings_pts_201111.shp,0,539,SouthRes539.html
-122.548672570582553,38.081927304110842,Trailhead,Trailhead,Tennessee Valley,Marin,,,,   -122.54867257100,     37.89547430200,from Trails_pts_100ft_20111121,0,540,Trailhea540.html
-122.636040000445519,38.083095887253826,Dipsea Knoll - Pony Pasture,Restoration Site,Stinson Beach,Marin,,,,   -122.63604000000,     37.89664099970,HRT work locations,121,541,DipseaKn541.html
-122.636031471275231,38.08315308558344,Dipsea Trail,Trailhead,Stinson Beach,Marin,,,,   -122.63603147100,     37.89669810570,from Trails_pts_100ft_20111121,0,542,DipseaTr542.html
-122.640710756296244,38.08320550079565,Central Restroom,Restroom,Stinson Beach,Marin,,,,   -122.64071075600,     37.89675043640,from O:\gis_projects\_Parkwide\Website\Web_Team\Park_locations\NAD83_UTM10\GGNRABuildings_pts_201111.shp,0,543,CentralR543.html
-122.638621365883196,38.083429834366072,Parking,Parking Lot,Stinson Beach,Marin,,,,   -122.63862136600,     37.89697440800,from O:\gis_projects\_Parkwide\park_locations_2011\NAD83_UTM10\GGNRAParking_pts_201111.shp,0,544,Parking544.html
-122.639779564075482,38.083463168453719,Parking,Parking Lot,Stinson Beach,Marin,,,,   -122.63977956400,     37.89700768840,from O:\gis_projects\_Parkwide\park_locations_2011\NAD83_UTM10\GGNRAParking_pts_201111.shp,0,545,Parking545.html
-122.560928830900664,38.083586412516681,Dipsea Trail,Trailhead,Mount Tamalpais State Park,Marin,,,,   -122.56092883100,     37.89713073360,from Trails_pts_100ft_20111121,0,546,DipseaTr546.html
-122.640656000174118,38.083599700752274,Stinson Beach,Park,Stinson Beach,Marin,,http://www.parksconservancy.org/visit/park-sites/stinson-beach.html,"Highway 1, Stinson Beach, CA 94970",   -122.64065600000,     37.89714400040,"Harvested from the GGNPC website, 10/14/2011",9999,547,StinsonB547.html
-122.570292805868178,38.08389754926327,Redwood Trail,Trailhead,Mount Tamalpais State Park,Marin,,,,   -122.57029280600,     37.89744136840,from Trails_pts_100ft_20111121,0,548,RedwoodT548.html
-122.64224108315932,38.084278456420463,North Restroom,Restroom,Stinson Beach,Marin,,,,   -122.64224108300,     37.89782166110,from O:\gis_projects\_Parkwide\Website\Web_Team\Park_locations\NAD83_UTM10\GGNRABuildings_pts_201111.shp,0,549,NorthRes549.html
-122.641993804670193,38.084568377164992,Parking,Parking Lot,Stinson Beach,Marin,,,,   -122.64199380500,     37.89811111420,from O:\gis_projects\_Parkwide\park_locations_2011\NAD83_UTM10\GGNRAParking_pts_201111.shp,0,550,Parking550.html
-122.637439384220059,38.086159340972223,Matt Davis Trail,Trailhead,Stinson Beach,Marin,,,,   -122.63743938400,     37.89969951210,from Trails_pts_100ft_20111121,0,551,MattDavi551.html
-122.604262189748084,38.089840437956298,Steep Ravine Trail,Trailhead,Mount Tamalpais State Park,Marin,,,,   -122.60426219000,     37.90337467440,from Trails_pts_100ft_20111121,0,552,SteepRav552.html
-122.603850796676738,38.090061690541766,California State Park Ranger Station,Visitor Center,Mount Tamalpais State Park,Marin,,,,   -122.60385079700,     37.90359557040,"Jill Harley, 2/15/2012",0,553,Californ553.html
-122.604209139639863,38.090192909871391,Parking Lot,Parking Lot,Mount Tamalpais State Park,Marin,,,,   -122.60420914000,     37.90372657820,"Jill Harley, 2/15/2012",0,554,ParkingL554.html
-122.642311000052473,38.090549907245624,Stinson Terrace,Restoration Site,Stinson Beach,Marin,,,,   -122.64231100000,     37.90408300020,HRT work locations,119,555,StinsonT555.html
-122.604099993419823,38.090770749042569,Matt Davis Trail,Trailhead,Mount Tamalpais State Park,Marin,,,,   -122.60409999300,     37.90430348610,from Trails_pts_100ft_20111121,0,556,MattDavi556.html
-122.552864329525065,38.091554146469903,Dipsea Trail,Trailhead,Mount Tamalpais State Park,Marin,,,,   -122.55286433000,     37.90508562110,from Trails_pts_100ft_20111121,0,557,DipseaTr557.html
-122.613669704493176,38.092447554310361,Matt Davis Trail,Trailhead,Mount Tamalpais State Park,Marin,,,,   -122.61366970400,     37.90597758940,from Trails_pts_100ft_20111121,0,558,MattDavi558.html
-122.576265385239154,38.094995385655452,Panoramic Trail,Trailhead,Mount Tamalpais State Park,Marin,,,,   -122.57626538500,     37.90852131640,from Trails_pts_100ft_20111121,0,559,Panorami559.html
-122.601913493312864,38.09520000701324,Parking Lot,Parking Lot,Mount Tamalpais State Park,Marin,,,,   -122.60191349300,     37.90872560820,"Jill Harley, 2/15/2012",0,560,ParkingL560.html
-122.654242999914331,38.095383694402443,Stinson Gulch Meeting Location,Meeting Place,Stinson Beach,Marin,,,,   -122.65424300000,     37.90890899980,HRT work locations,114,561,StinsonG561.html
-122.654830364229753,38.095512293225454,Willow Camp Fire Road,Trailhead,Stinson Beach,Marin,,,,   -122.65483036400,     37.90903739150,from Trails_pts_100ft_20111121,0,562,WillowCa562.html
-122.601798213716421,38.095534857582635,Restroom,Restroom,Mount Tamalpais State Park,Marin,,,,   -122.60179821400,     37.90905991950,"Jill Harley, 2/15/2012",0,563,Restroom563.html
-122.60173184105146,38.095629328825183,Bootjack Trail,Trailhead,Mount Tamalpais State Park,Marin,,,,   -122.60173184100,     37.90915423860,"Jill Harley, 2/15/2012",0,564,Bootjack564.html
-122.576884983055379,38.096608455153728,Mountain Home Inn,Site of Interest,Mount Tamalpais State Park,Marin,,,,   -122.57688498300,     37.91013178820,"M. Norelli, 2/16/2012",0,565,Mountain565.html
-122.346687000104851,38.101416406029898,Rosie the Riveter,Site of Interest,Crissy Field,Contra Costa,,,,   -122.34668700000,     37.91493199960,2011 Junior Rangers,200,566,Rosiethe566.html
-122.628974194403384,38.104176357444281,Willow Camp Fire Road,Trailhead,Mount Tamalpais State Park,Marin,,,,   -122.62897419400,     37.91768751070,from Trails_pts_100ft_20111121,0,567,WillowCa567.html
-122.680635000204973,38.105233547168737,Bolinas Lagoon,Park,Bolinas Lagoon,Marin,,http://www.parksconservancy.org/visit/park-sites/bolinas-lagoon.html,,   -122.68063500000,     37.91874300000,"Harvested from the GGNPC website, 10/14/2011",9999,568,BolinasL568.html
-122.640180557386628,38.110922847613246,Coastal Trail,Trailhead,Mount Tamalpais State Park,Marin,,,,   -122.64018055700,     37.92442315400,from Trails_pts_100ft_20111121,0,569,CoastalT569.html
-122.582228525326016,38.11421703463575,Mount Tamalpais,Park,Mount Tamalpais State Park,Marin,,http://www.parksconservancy.org/visit/park-sites/mount-tamalpais.html,,   -122.58222852500,     37.92771204850,"Harvested from the GGNPC website, 10/14/2011",9999,570,MountTam570.html
-122.697289000187055,38.121205205144683,Bolinas Ridge at Fairfax-Bolinas Rd,Restoration Site,Bolinas Ridge,Marin,,,,   -122.69728900000,     37.93468899970,HRT work locations,112,571,BolinasR571.html
-122.651515795017772,38.121919061517062,Coastal Trail,Trailhead,Bolinas Ridge,Marin,,,,   -122.65151579500,     37.93540171060,from Trails_pts_100ft_20111121,0,572,CoastalT572.html
-122.658522875330263,38.126058342209568,Bolinas Ridge Trail,Trailhead,Bolinas Ridge,Marin,,,,   -122.65852287500,     37.93953435170,from Trails_pts_100ft_20111121,0,573,BolinasR573.html
-122.708906200460632,38.133409688667086,McCurdy Trail,Trailhead,Point Reyes National Seashore,Marin,,,,   -122.70890620000,     37.94687391590,from Trails_pts_100ft_20111121,0,574,McCurdyT574.html
-122.789624386655944,38.157010998382837,Wildcat Campground,Campground,Point Reyes National Seashore,Marin,,,,   -122.78962438700,     37.97043748180,from O:\gis_libraries\data_library\infrastructure\campgrounds.shp,0,575,WildcatC575.html
-122.730494729248221,38.15942392518906,Randall Trail,Trailhead,Point Reyes National Seashore,Marin,,,,   -122.73049472900,     37.97284655690,from Trails_pts_100ft_20111121,0,576,RandallT576.html
-122.788069363510118,38.175812864401138,Glen Campground,Campground,Point Reyes National Seashore,Marin,,,,   -122.78806936400,     37.98920936990,from O:\gis_libraries\data_library\infrastructure\campgrounds.shp,0,577,GlenCamp577.html
-122.131873999984919,38.177867765571214,John Muir National Historic Site,Building,Crissy Field,Contra Costa,,,,   -122.13187400000,     37.99126099960,2011 Junior Rangers,201,578,JohnMuir578.html
-122.727890092053926,38.190797908926932,Bolinas Ridge,Park,Bolinas Ridge,Marin,,http://www.parksconservancy.org/visit/park-sites/bolinas-ridge.html,"Sir Francis Drake Blvd., Point Reyes Station 94956",   -122.72789009200,     38.00417057960,"Harvested from the GGNPC website, 10/14/2011",9999,579,BolinasR579.html
-122.853628219366712,38.202810469079488,Coast Campground,Campground,Point Reyes National Seashore,Marin,,,,   -122.85362821900,     38.01616406970,from O:\gis_libraries\data_library\infrastructure\campgrounds.shp,0,580,CoastCam580.html
-122.770995093248857,38.205040230198563,Olema Valley,Park,Olema Valley,Marin,,http://www.parksconservancy.org/visit/park-sites/olema-valley.html,"Highway 1 South of Olema, Sausalito, CA 94950",   -122.77099509300,     38.01839029470,"Harvested from the GGNPC website, 10/14/2011",9999,581,OlemaVal581.html
-122.884659000112634,38.212578882310439,Limantour Beach,Beach,Point Reyes National Seashore,Marin,,,,   -122.88465900000,     38.02591699970,2011 Junior Rangers,197,582,Limantou582.html
-122.828957605109267,38.226907654142913,Sky Campground,Campground,Point Reyes National Seashore,Marin,,,,   -122.82895760500,     38.04022309910,from O:\gis_libraries\data_library\infrastructure\campgrounds.shp,0,583,SkyCampg583.html
-122.862166999807059,38.257260428251321,Point Reyes National Seashore,Park,Point Reyes National Seashore,Marin,,http://www.parksconservancy.org/visit/park-sites/point-reyes-national-seashore.html,,   -122.86216700000,     38.07052800020,"Harvested from the GGNPC website, 10/14/2011",9999,584,PointRey584.html
-122.814273999944959,38.275919754507726,Martinelli Ranch,Park,Martinelli Ranch,Marin,,http://www.parksconservancy.org/visit/park-sites/martinelli-ranch.html,,   -122.81427400000,     38.08915800040,"Harvested from the GGNPC website, 10/14/2011",9999,585,Martinel585.html
-122.952460999875058,38.305972820789087,Abbotts Lagoon,Site of Interest,Point Reyes National Seashore,Marin,,,,   -122.95246100000,     38.11916400010,2011 Junior Rangers,198,586,AbbottsL586.html
-122.906026999845963,38.353635044481166,Tomales Bay and Points North,Park,Tomales Bay and Points North,Marin,,http://www.parksconservancy.org/visit/park-sites/tomales-bay-and-points-north.html,,   -122.90602700000,     38.16675200030,"Harvested from the GGNPC website, 10/14/2011",9999,587,TomalesB587.html
-122.568953530980536,38.078559165305506,Muir Woods Education Lab,Building,Muir Woods National Monument,Marin,,,,   -122.56895353100,     37.89211159930,"C. Voight, web event location, 2/23/12",0,588,MuirWood588.html
-122.537522480754788,38.01911588654621,Antenna Theater,Building,Fort Cronkhite,Marin,,http://www.antenna-theater.org,,   -122.53752248100,     37.83276468380,"Updated Sara Solomon, 4/17/2013",0,589,AntennaT589.html
-122.537873451198664,38.018899192751675,Golden Gate Raptor Observatory (Bldg. 1064),Building,Marin Headlands,Marin,,,,   -122.53787345100,     37.83254834270,"M. Norelli, 2/23/12",0,590,GoldenGa590.html
-122.537243525568101,38.018809504850118,San Francisco Bay Area Network (Bldg. 1063),Building,Marin Headlands,Marin,,,,   -122.53724352600,     37.83245880080,"M. Norelli, 2/23/12",0,591,SanFranc591.html
-122.537000782360039,38.018345848294366,NPS Conference Room,Meeting Place,Marin Headlands,Marin,,,,   -122.53700078200,     37.83199589910,"M. Norelli, 2/23/12",0,592,NPSConfe592.html
-122.498734115881419,38.014903847782115,Hawk Hill Viewing Area,Overlook,Hawk Hill,Marin,,,,   -122.49873411600,     37.82855950350,"Tami Lau, 2/23/12",0,593,HawkHill593.html
-122.477327575723507,38.021929895829764,Kiosk near Bay Area Discovery Museum,Meeting Place,Fort Baker,Marin,,,,   -122.47732757600,     37.83557411320,"M. Norelli, 2/24/12",0,594,Kiosknea594.html
-122.457477362287065,37.983496045505376,Funston and Moraga Meeting Place,Meeting Place,Presidio of San Francisco,Marin,,,,   -122.45747736200,     37.79720296990,"M. Norelli, 2/24/12",0,595,Funstona595.html
-122.492167218340839,37.818107068869459,Pacifica Sharp Park Library,Meeting Place,Mori Point,San Mateo,,,"104 Hilton Way, Pacifica, CA 94044",   -122.49216721800,     37.63208765470,"M. Norelli, 2/24/12",0,596,Pacifica596.html
-122.511543994278057,37.969082853989548,USS San Francisco Memorial,Site of Interest,Lands End,San Francisco,,,,   -122.51154399400,     37.78281338070,"M. Norelli, 2/24/12",0,597,USSSanFr597.html
-122.471082857316418,37.99458630587236,Building 988,Building,Crissy Field,San Francisco,,,,   -122.47108285700,     37.80827510150,"M. Norelli, 2/27/12",0,598,Building598.html
-122.511774370045913,37.961365850310635,"Great Hwy and Balboa St, Stairwell #4",Meeting Place,Ocean Beach,San Francisco,,,,   -122.51177437000,     37.77510903330,"M. Norelli, 2/27/12",0,599,GreatHwy599.html
-122.522438,38.016050211279698,Headlands Center for the Arts,Site of Interest,Marin Headlands,Marin,,http://www.headlands.org,,   -122.52243800000,     37.82970400000,"Updated Sara Solomon, 4/17/2013",0,611,Headland611.html
-122.52948,38.009451460058308,Point Bonita YMCA,Site of Interest,Marin Headlands,Marin,,http://www.pointbonitaymca.org/,,   -122.52948000000,     37.82311600000,"Updated Sara Solomon, 4/17/2013",0,617,PointBon617.html
-122.476807,38.021995890005087,Bay Area Discovery Museum,Site of Interest,Fort Baker,Marin,,http://baykidsmuseum.org,,   -122.47680700000,     37.83564000000,"Updated Sara Solomon, 4/17/2013",0,606,BayAreaD606.html
-122.405045,37.992933504370399,Alcatraz Cruises,Building,Alcatraz,San Francisco,,http://www.alcatrazcruises.com/,,   -122.40504500000,     37.80662500000,"Updated Sara Solomon, 4/17/2013",0,605,Alcatraz605.html
-122.500404,37.900944255600649,Fellow Feathers Hang Gliding Club,Site of Interest,Fort Funston,San Francisco,,http://www.flyfunston.org/,,   -122.50040400000,     37.71478700000,"Updated Sara Solomon, 4/17/2013",0,607,FellowFe607.html
-122.431793,37.99235355682854,Fort Mason Center,Site of Interest,Fort Mason,San Francisco,,http://fortmason.org,,   -122.43179300000,     37.80604600000,"Updated Sara Solomon, 4/17/2013",0,609,FortMaso609.html
-122.428406,37.993499428927393,Fisherman's Wharf Hostel - Hostelling International,Site of Interest,Fort Mason,San Francisco,,http://www.norcalhostels.org/,,   -122.42840600000,     37.80719000000,"Updated Sara Solomon, 4/17/2013",0,608,Fisherma608.html
-122.572871423911479,38.079885410027096,Muir Woods Trading Company,Cafe,Muir Woods National Monument,Marin,,http://muirwoodstradingcompany.com/,,   -122.57287142400,     37.89343570320,"Updated Sara Solomon, 4/17/2013",0,613,MuirWood613.html
-122.53524,38.018595355396343,NatureBridge (formerly Headlands Institute),Building,Fort Cronkhite,Marin,,http://www.yni.org/hi/,,   -122.53524000000,     37.83224500000,"Updated Sara Solomon, 4/17/2013",0,614,NatureBr614.html
-122.520714,38.015282961721738,Marin Headlands Hostel - Hostelling International,Site of Interest,Marin Headlands,Marin,,http://www.norcalhostels.org/,,   -122.52071400000,     37.82893800000,"Updated Sara Solomon, 4/17/2013",0,612,MarinHea612.html
-122.537970780783809,38.037470204917867,Aim High Headlands Environmental Home,Building,Tennessee Valley,Marin,,http://www.aimhigh.org/,,   -122.53797078100,     37.85108916250,"Updated Sara Solomon, 4/17/2013",0,604,AimHighH604.html
-122.425888,37.991817681225456,A Home Away from Homelessness,Building,Fort Mason,San Francisco,,http://www.homeaway.org/,,   -122.42588800000,     37.80551100000,"Updated Sara Solomon, 4/17/2013",0,602,AHomeAwa602.html
-122.53211783175243,38.019559707409606,A Home Away from Homelessness,Building,Fort Cronkhite,Marin,,http://www.homeaway.org/,,   -122.53211783200,     37.83320778220,"Updated Sara Solomon, 4/17/2013",0,603,AHomeAwa603.html
-122.574280005098487,38.051768993771041,Ocean Riders,Building,Muir Beach,Marin,,http://marinhorsecouncil.org/resources.htm,,   -122.57428000500,     37.86536475800,"Updated Sara Solomon, 4/17/2013",0,615,OceanRid615.html
-122.509926,37.967948613921187,"Pacific Leadership Institute, Fort Miley Adventure Challenge Course",Site of Interest,Lands End,San Francisco,,http://www.pliprograms.org/index.php/programs/ropes-course,,   -122.50992600000,     37.78168100000,"Updated Sara Solomon, 4/17/2013",0,616,PacificL616.html
-122.639565,38.08247688888293,Surfer's Grill,Cafe,Stinson Beach,Marin,,http://www.surfersgrill.com/,,   -122.63956500000,     37.89602300000,"Updated Sara Solomon, 4/17/2013",0,619,SurfersG619.html
-122.499916,37.898651461294342,San Francisco Unified School District - Environmental Science Center,Building,Fort Funston,San Francisco,,http://sfportal.sfusd.edu/sites/esc/default.aspx,,   -122.49991600000,     37.71249800000,"Updated Sara Solomon, 4/17/2013",0,618,SanFranc618.html
-122.536947705817468,38.018767699681121,Foundation for Deep Ecology,Building,Fort Cronkhite,Marin,,http://www.deepecology.org/,,   -122.53694770600,     37.83241706370,"Updated Sara Solomon, 4/17/2013",0,610,Foundati610.html
